 2015  125 0619 45.5 L  -4.784 152.230102.0  SOT  4 1.0                        1
 GAP=207        0.89      76.8    42.3 20.2  0.3148E+04 -0.5363E+03 -0.9115E+03E
                                                                               6
 STAT SP IPHASW D HRMM SECON CODA AMPLIT PERI AZIMU VELO AIN AR TRES W  DIS CAZ7
 RABL     P   4    620  6.90                             145    3.74 0 66.0 354 
 RABL     S   2    620 19.30                             145   -0.69 5 66.0 354 
 LASU     P   0    620  7.04                             129    0.1310  111  61 
 KAVI     P   2    620 29.50                             104    2.05 3  292 327 
 KAVI     S   2    621  1.68                             106   -1.08 3  292 327 
 ARAWA    S   4    621 22.76                             101   -3.90 0  402 113 
 BUIN     P   3    620 43.38                              98   -2.38 1  441 120 
                                                                                
