 2014 12 4 2227 17.0 L  -3.898 153.503 42.7  SOT  512.5                        1
 GAP=189        9.89     733.5   673.8652.5  0.4665E+06  0.1565E+06  0.2885E+06E
                                                                               6
 STAT SP IPHASW D HRMM SECON CODA AMPLIT PERI AZIMU VELO AIN AR TRES W  DIS CAZ7
 LIHIR    P   1   2227 42.80                              97    4.51 6  136 313 
 LIHIR    S   2   2227 44.80                              96   -13.0 4  136 313 
 BUKA     P   1   2224 45.90                              93   -99.9 0  212 142 
 BUKA     S   2   2224 55.00                              93   -99.9 0  212 142 
 KAVI     P   1   2228  9.70                              92    6.45 4  334 296 
 ARAWA    P   4   2229 33.50                              92   88.99 0  344 138 
 BUIN     P   1   2228 20.40                              91    9.04 3  398 143 
 BUIN     S   2   2228 25.30                              91   -30.5 2  398 143 
 KIMBE    P   1   2226 21.90                              91   -99.9 0  416 244 
                                                                                
