 2015  330 0552  9.7 L  -4.310 153.110 10.0       7 0.0 3.8L sotonPNG2015gffx                   1
 STAT SP IPHASW D HRMM SECON CODA AMPLIT PERI AZIMU VELO AIN AR TRES W  DIS CAZ7
 LASU     P   1    550 59.90                                                    
 LASU     S   1    551  1.90                                                    
 RABL     P   1    553 37.80                                                    
 RABL     S   1    553 45.10                                                    
 LIHIR    P   1    556 41.60                                                    
 ARAWA    P   1    551 54.10                                                    
 ARAWA    S   1    551 56.10                                                    

 2015  330 0630 41.2 L  -4.170 152.860  5.0       4 0.5 4.2L sotonPNG2015gfhe                   1
 STAT SP IPHASW D HRMM SECON CODA AMPLIT PERI AZIMU VELO AIN AR TRES W  DIS CAZ7
 LASU     P   1    630 47.90                                                    
 RABL     P   1    630 55.40                                                    
 KAVI     P   1    631 23.20                                                    
 ARAWA    P   1    631 35.30                                                    

 2015  330 0637 11.0 L  -4.240 152.970200.0       6 1.9 4.1L sotonPNG2015gfhj                   1
 STAT SP IPHASW D HRMM SECON CODA AMPLIT PERI AZIMU VELO AIN AR TRES W  DIS CAZ7
 LASU     P   1    637 33.80                                                    
 LASU     S   1    638  0.90                                                    
 RABL     P   1    637 39.50                                                    
 RABL     S   1    638  3.00                                                    
 LIHIR    P   1    637 44.90                                                    
 BUIN     P   1    638 41.00                                                    

 2015  330 0658 22.9 L  -5.340 153.760 81.0       6 0.0 4.8L sotonPNG2015gfib                   1
 STAT SP IPHASW D HRMM SECON CODA AMPLIT PERI AZIMU VELO AIN AR TRES W  DIS CAZ7
 LASU     P   1    658 45.30                                                    
 LASU     S   1    659  3.10                                                    
 ARAWA    P   1    658 55.40                                                    
 LIHIR    P   1    659  2.90                                                    
 LIHIR    S   1    659 34.40                                                    
 KAVI     P   1    659 20.10                                                    

 2015  330 0713  5.5 L  -8.070 150.760100.0      14 1.6 5.3L sotonPNG2015gfio                   1
 STAT SP IPHASW D HRMM SECON CODA AMPLIT PERI AZIMU VELO AIN AR TRES W  DIS CAZ7
 BUTIA    P   1    713 22.40                                                    
 RABL     P   1    714  9.40                                                    
 LASU     P   1    714  5.60                                                    
 LASU     S   0    714 20.70                                                    
 BUIN     P   1    714 32.40                                                    
 BUIN     S   0    714 54.50                                                    
 ARAWA    P   1    713 56.30                                                    
 ARAWA    S   0    714 25.90                                                    
 LIHIR    P   1    714 23.40                                                    
 LIHIR    S   1    715  0.20                                                    
 KAVI     P   1    714 37.20                                                    
 KAVI     S   1    714 40.40                                                    
 MANU     P   1    715 36.60                                                    
 MANU     S   1    715 40.70                                                    

 2015  330 0724 36.7 L  -5.620 152.940 40.0       6 1.2 4.6L sotonPNG2015gfiy                   1
 STAT SP IPHASW D HRMM SECON CODA AMPLIT PERI AZIMU VELO AIN AR TRES W  DIS CAZ7
 LASU     P   1    724 58.60                                                    
 LASU     S   0    725 18.80                                                    
 RABL     P   1    725  2.40                                                    
 LIHIR    P   1    725 20.20                                                    
 ARAWA    P   1    725 17.80                                                    
 ARAWA    S   0    725 19.60                                                    

 2015  330 0831 48.8 L  -4.710 152.420 20.0       7 2.5 5.5L sotonPNG2015gfld                   1
 STAT SP IPHASW D HRMM SECON CODA AMPLIT PERI AZIMU VELO AIN AR TRES W  DIS CAZ7
 RABL     P   1    832  3.60                                                    
 RABL     S   1    832  5.00                                                    
 LASU     P   1    832  3.60                                                    
 LASU     S   1    832 17.00                                                    
 LIHIR    P   1    832 16.80                                                    
 KAVI     P   1    832 33.90                                                    
 ARAWA    P   1    832 38.60                                                    

 2015  330 0919  2.0 L  -3.310 152.360 29.0      10 2.2 4.1L sotonPNG2015gfms                   1
 STAT SP IPHASW D HRMM SECON CODA AMPLIT PERI AZIMU VELO AIN AR TRES W  DIS CAZ7
 LIHIR    P   1    919 10.20                                                    
 LIHIR    S   0    919 33.00                                                    
 RABL     P   1    919 16.50                                                    
 RABL     S   0    919 19.70                                                    
 LASU     P   1    919 27.90                                                    
 LASU     S   0    919 49.70                                                    
 KAVI     P   1    919 31.10                                                    
 KAVI     S   0    919 39.00                                                    
 ARAWA    P   1    919 32.70                                                    
 ARAWA    S   0    920 22.80                                                    

 2015  330 1011 34.2 L  -4.830 153.240  9.0       5 2.1 4.0L sotonPNG2015gfol                   1
 STAT SP IPHASW D HRMM SECON CODA AMPLIT PERI AZIMU VELO AIN AR TRES W  DIS CAZ7
 LASU     P   1   1011 49.90                                                    
 LASU     S   1   1011 52.30                                                    
 RABL     P   1   1011 56.50                                                    
 LIHIR    P   1   1012  9.40                                                    
 ARAWA    P   1   1012 16.10                                                    

 2015  330 1037 20.0 L  -4.940 153.430  9.0       5 2.6 4.0L sotonPNG2015gfph                   1
 STAT SP IPHASW D HRMM SECON CODA AMPLIT PERI AZIMU VELO AIN AR TRES W  DIS CAZ7
 LASU     P   1   1037 38.90                                                    
 LASU     S   1   1037 41.40                                                    
 RABL     P   1   1037 45.80                                                    
 LIHIR    P   1   1037 58.80                                                    
 ARAWA    P   1   1037 58.80                                                    

 2015  330 1122 54.1 L  -6.390 152.050 34.0       7 2.4 5.5L sotonPNG2015gfqu                   1
 STAT SP IPHASW D HRMM SECON CODA AMPLIT PERI AZIMU VELO AIN AR TRES W  DIS CAZ7
 RABL     P   1   1123 27.70                                                    
 BUTIA    P   1   1123 30.30                                                    
 LASU     P   1   1123 29.60                                                    
 LASU     S   0   1123 45.00                                                    
 LIHIR    P   1   1123 42.40                                                    
 ARAWA    P   1   1124  2.00                                                    
 KAVI     P   1   1123 57.70                                                    

 2015  330 1143 33.2 L  -4.340 153.080 40.0       6 2.4 4.4L sotonPNG2015gfrl                   1
 STAT SP IPHASW D HRMM SECON CODA AMPLIT PERI AZIMU VELO AIN AR TRES W  DIS CAZ7
 LASU     P   1   1143 40.40                                                    
 LASU     S   0   1143 56.80                                                    
 RABL     P   1   1143 45.20                                                    
 RABL     S   1   1144  5.60                                                    
 LIHIR    P   1   1143 58.30                                                    
 KAVI     P   1   1144 16.00                                                    

 2015  330 1224  9.1 L  -6.220 151.410 82.0      10 2.6 5.3L sotonPNG2015gfsv                   1
 STAT SP IPHASW D HRMM SECON CODA AMPLIT PERI AZIMU VELO AIN AR TRES W  DIS CAZ7
 RABL     P   1   1224 47.50                                                    
 BUTIA    P   1   1224 45.50                                                    
 LASU     P   1   1224 42.40                                                    
 LASU     S   0   1224 57.20                                                    
 LIHIR    P   1   1225  0.50                                                    
 LIHIR    S   0   1225 28.20                                                    
 ARAWA    P   1   1225 12.00                                                    
 ARAWA    S   0   1225 41.80                                                    
 BUIN     P   1   1225 18.70                                                    
 BUIN     S   0   1225 21.90                                                    

 2015  330 1324 39.8 L  -4.150 152.050 40.0       4 0.5 3.5L sotonPNG2015gfuv                   1
 STAT SP IPHASW D HRMM SECON CODA AMPLIT PERI AZIMU VELO AIN AR TRES W  DIS CAZ7
 RABL     P   1   1324 47.20                                                    
 LASU     P   1   1324 58.70                                                    
 LIHIR    P   1   1325  0.90                                                    
 ARAWA    P   1   1325 49.40                                                    

 2015  330 1452 13.1 L  -5.330 152.850 75.0      12 2.6 5.0L sotonPNG2015gfxs                   1
 STAT SP IPHASW D HRMM SECON CODA AMPLIT PERI AZIMU VELO AIN AR TRES W  DIS CAZ7
 LASU     P   1   1452 30.10                                                    
 LASU     S   1   1452 50.00                                                    
 RABL     P   1   1452 34.70                                                    
 RABL     S   1   1452 55.60                                                    
 LIHIR    P   1   1452 48.00                                                    
 LIHIR    S   1   1453 21.10                                                    
 ARAWA    P   1   1452 54.30                                                    
 ARAWA    S   0   1452 58.40                                                    
 BUIN     P   1   1453  5.10                                                    
 BUIN     S   0   1453  8.40                                                    
 KAVI     P   1   1453  5.80                                                    
 KAVI     S   0   1453 14.50                                                    

 2015  330 1601 22.4 L  -5.320 152.900  5.0       4 0.1 4.3L sotonPNG2015gfzz                   1
 STAT SP IPHASW D HRMM SECON CODA AMPLIT PERI AZIMU VELO AIN AR TRES W  DIS CAZ7
 LASU     P   1   16 1 42.10                                                    
 RABL     P   1   16 1 47.00                                                    
 LIHIR    P   1   16 2  0.50                                                    
 ARAWA    P   1   16 2  7.40                                                    

 2015  330 1706 31.1 L  -6.700 150.410 31.0       8 1.9 5.0L sotonPNG2015ggcd                   1
 STAT SP IPHASW D HRMM SECON CODA AMPLIT PERI AZIMU VELO AIN AR TRES W  DIS CAZ7
 BUTIA    P   1   17 7  2.00                                                    
 RABL     P   1   17 7 19.20                                                    
 LASU     P   1   17 7 19.70                                                    
 LASU     S   0   17 7 45.20                                                    
 LIHIR    P   1   17 7 35.60                                                    
 ARAWA    P   1   17 7 59.40                                                    
 ARAWA    S   1   17 8  6.70                                                    
 BUIN     P   1   17 8 23.60                                                    

 2015  330 1721 30.9 L  -4.870 152.630 69.0       7 1.2 4.2L sotonPNG2015ggcp                   1
 STAT SP IPHASW D HRMM SECON CODA AMPLIT PERI AZIMU VELO AIN AR TRES W  DIS CAZ7
 LASU     P   1   1721 45.00                                                    
 LASU     S   1   1722  0.10                                                    
 RABL     P   1   1721 46.30                                                    
 RABL     S   1   1722  2.40                                                    
 LIHIR    P   1   1722  1.60                                                    
 LIHIR    S   1   1722 24.10                                                    
 ARAWA    P   1   1722 20.60                                                    

 2015  330 1812 14.9 L  -4.160 152.790  8.0       5 0.0 3.8L sotonPNG2015ggeh                   1
 STAT SP IPHASW D HRMM SECON CODA AMPLIT PERI AZIMU VELO AIN AR TRES W  DIS CAZ7
 LASU     P   1   1812 23.10                                                    
 LASU     S   1   1812 29.50                                                    
 RABL     P   1   1812 27.80                                                    
 ARAWA    P   1   1813  8.40                                                    
 BUIN     P   1   1813 15.50                                                    

 2015  330 1819 26.3 L  -5.000 153.000  0.0       5 0.2 4.5L sotonPNG2015ggeo                   1
 STAT SP IPHASW D HRMM SECON CODA AMPLIT PERI AZIMU VELO AIN AR TRES W  DIS CAZ7
 LASU     P   1   1819 42.30                                                    
 RABL     P   1   1819 49.80                                                    
 LIHIR    P   1   1820  2.30                                                    
 LIHIR    S   1   1820 29.80                                                    
 BUIN     P   1   1820 18.70                                                    

 2015  330 1938 30.1 L  -4.680 153.200  2.0       8 2.4 4.2L sotonPNG2015gghd                   1
 STAT SP IPHASW D HRMM SECON CODA AMPLIT PERI AZIMU VELO AIN AR TRES W  DIS CAZ7
 LASU     P   1   1938 41.60                                                    
 LASU     S   1   1938 46.00                                                    
 RABL     P   1   1938 50.20                                                    
 RABL     S   1   1939 11.50                                                    
 LIHIR    P   1   1939  3.70                                                    
 LIHIR    S   0   1939 36.60                                                    
 ARAWA    P   1   1939 12.50                                                    
 BUIN     P   1   1939 25.30                                                    

 2015  330 1941 22.8 L  -5.490 153.010 21.0       9 2.0 4.8L sotonPNG2015gghg                   1
 STAT SP IPHASW D HRMM SECON CODA AMPLIT PERI AZIMU VELO AIN AR TRES W  DIS CAZ7
 LASU     P   1   1941 42.10                                                    
 LASU     S   1   1942  2.20                                                    
 RABL     P   1   1941 46.50                                                    
 RABL     S   0   1942  7.60                                                    
 LIHIR    P   1   1942  1.10                                                    
 LIHIR    S   1   1942 34.70                                                    
 ARAWA    P   1   1942  6.80                                                    
 ARAWA    S   1   1942 35.40                                                    
 KAVI     P   1   1942 17.70                                                    

 2015  331 0433 47.9 L  -4.610 152.900  5.0       4 0.1 4.0L sotonPNG2015ggyu                   1
 STAT SP IPHASW D HRMM SECON CODA AMPLIT PERI AZIMU VELO AIN AR TRES W  DIS CAZ7
 LASU     P   1    433 56.70                                                    
 RABL     P   1    434  4.70                                                    
 LIHIR    P   1    434 15.90                                                    
 ARAWA    P   1    434 37.00                                                    

 2015  331 0914 42.2 L  -4.830 152.710  5.0       4 0.7 3.9L sotonPNG2015ghib                   1
 STAT SP IPHASW D HRMM SECON CODA AMPLIT PERI AZIMU VELO AIN AR TRES W  DIS CAZ7
 LASU     P   1    914 55.30                                                    
 RABL     P   1    914 58.10                                                    
 LIHIR    P   1    915 14.20                                                    
 ARAWA    P   1    915 32.20                                                    

 2015  331 1030 55.4 L  -5.670 153.010 48.0       7 0.7 4.2L sotonPNG2015ghkp                   1
 STAT SP IPHASW D HRMM SECON CODA AMPLIT PERI AZIMU VELO AIN AR TRES W  DIS CAZ7
 LASU     P   1   1031 18.80                                                    
 LASU     S   1   1031 35.50                                                    
 RABL     P   1   1031 23.00                                                    
 RABL     S   1   1031 44.40                                                    
 ARAWA    P   1   1031 35.60                                                    
 LIHIR    P   1   1031 38.30                                                    
 LIHIR    S   1   1032  9.40                                                    

 2015  331 1057 27.8 L  -5.410 153.630  5.0       5 1.9 4.1L sotonPNG2015ghll                   1
 STAT SP IPHASW D HRMM SECON CODA AMPLIT PERI AZIMU VELO AIN AR TRES W  DIS CAZ7
 LASU     P   1   1057 48.90                                                    
 LASU     S   0   1057 55.30                                                    
 RABL     P   1   1057 59.80                                                    
 ARAWA    P   1   1058  2.70                                                    
 LIHIR    P   1   1058 15.60                                                    

 2015  331 1115 54.9 L  -5.850 152.750 37.0       6 0.9 4.7L sotonPNG2015ghmb                   1
 STAT SP IPHASW D HRMM SECON CODA AMPLIT PERI AZIMU VELO AIN AR TRES W  DIS CAZ7
 LASU     P   1   1116 24.30                                                    
 LASU     S   1   1116 40.90                                                    
 RABL     P   1   1116 22.60                                                    
 LIHIR    P   1   1116 37.70                                                    
 ARAWA    P   1   1116 38.00                                                    
 KAVI     P   1   1116 52.00                                                    

