 2014 1215 0118 38.7 L  -5.810 150.220190.0      13 2.0 5.7L sotonPNG2014ylxr                   1
 STAT SP IPHASW D HRMM SECON CODA AMPLIT PERI AZIMU VELO AIN AR TRES W  DIS CAZ7
 KIMBE    P   1    119  3.90                                                    
 RABL     P   1    119 22.50                                                    
 RABL     S   0    119 51.20                                                    
 BUTIA    P   1    119 30.00                                                    
 BUTIA    S   1    120  3.10                                                    
 LASU     P   1    119 31.60                                                    
 LASU     S   0    119 58.90                                                    
 KAVI     P   1    119 37.40                                                    
 LIHIR    P   1    119 11.50                                                    
 LIHIR    S   0    119 38.50                                                    
 ARAWA    P   1    119 59.90                                                    
 ARAWA    S   0    120 53.40                                                    
 BUIN     P   1    120 59.90                                                    

 2014 1215 0821 28.4 L  -4.700 153.210 77.0       7 0.4 4.4L sotonPNG2014ymlp                   1
 STAT SP IPHASW D HRMM SECON CODA AMPLIT PERI AZIMU VELO AIN AR TRES W  DIS CAZ7
 LASU     P   1    821 40.60                                                    
 LASU     S   1    821 52.90                                                    
 RABL     P   1    821 49.90                                                    
 LIHIR    P   1    821 58.20                                                    
 LIHIR    S   1    822 20.00                                                    
 ARAWA    P   1    822 11.60                                                    
 KAVI     P   1    822 18.50                                                    

 2014 1216 1723 32.3 L  -6.230 156.350 80.0       4 1.3 4.3L sotonPNG2014yoyz                   1
 STAT SP IPHASW D HRMM SECON CODA AMPLIT PERI AZIMU VELO AIN AR TRES W  DIS CAZ7
 ARAWA    P   1   1723 46.70                                                    
 ARAWA    S   1   1724  3.70                                                    
 BUIN     P   1   1723 50.40                                                    
 LASU     P   1   1724 30.60                                                    

 2014 1216 2203 47.6 L  -4.330 153.100100.0       4 1.9 3.6L sotonPNG2014ypig                   1
 STAT SP IPHASW D HRMM SECON CODA AMPLIT PERI AZIMU VELO AIN AR TRES W  DIS CAZ7
 LASU     P   1   22 3 58.20                                                    
 LASU     S   1   22 4 15.60                                                    
 LIHIR    P   1   22 4 13.70                                                    
 ARAWA    P   1   22 4 35.50                                                    

 2014 1217 0946 56.5 L  -5.580 151.370 36.0      13 2.7 5.9L sotonPNG2014yqfl                   1
 STAT SP IPHASW D HRMM SECON CODA AMPLIT PERI AZIMU VELO AIN AR TRES W  DIS CAZ7
 KIMBE    P   1    947 21.90                                                    
 KIMBE    S   1    947 31.50                                                    
 RABL     P   1    947 22.80                                                    
 LASU     P   1    947 29.90                                                    
 LASU     S   0    947 39.00                                                    
 LIHIR    P   1    947 39.40                                                    
 KAVI     P   1    947 43.70                                                    
 KAVI     S   0    947 45.50                                                    
 ARAWA    P   1    948  0.30                                                    
 ARAWA    S   1    948 42.50                                                    
 BUIN     P   1    948  1.50                                                    
 MANU     P   1    948 16.90                                                    
 MANU     S   1    948 19.90                                                    

 2014 1217 2331  3.5 L  -5.700 152.910 88.0       6 0.7 3.9L sotonPNG2014yrgq                   1
 STAT SP IPHASW D HRMM SECON CODA AMPLIT PERI AZIMU VELO AIN AR TRES W  DIS CAZ7
 LASU     P   1   2331 25.60                                                    
 LASU     S   1   2331 48.90                                                    
 RABL     P   1   2331 32.40                                                    
 RABL     S   1   2331 54.40                                                    
 LIHIR    P   1   2331 45.70                                                    
 ARAWA    P   1   2331 45.50                                                    

 2014 1218 0118 24.8 L  -2.310 151.060  5.0       4 2.5 4.3L sotonPNG2014yrke                   1
 STAT SP IPHASW D HRMM SECON CODA AMPLIT PERI AZIMU VELO AIN AR TRES W  DIS CAZ7
 KAVI     P   1    118 32.10                                                    
 LIHIR    P   1    118 54.40                                                    
 KIMBE    P   1    119 27.50                                                    
 MANU     P   1    119 23.30                                                    

 2014 1219 1031 25.1 L  -3.720 152.260 12.0       5 1.5 4.1L sotonPNG2014ytxx                   1
 STAT SP IPHASW D HRMM SECON CODA AMPLIT PERI AZIMU VELO AIN AR TRES W  DIS CAZ7
 RABL     P   1   1031 35.00                                                    
 LIHIR    P   1   1031 41.90                                                    
 LIHIR    S   1   1031 46.60                                                    
 LASU     P   1   1031 44.60                                                    
 KAVI     P   1   1031 56.60                                                    

 2014 1220 0937 37.9 L  -3.610 151.960  4.0       5 1.4 3.1L sotonPNG2014yvrq                   1
 STAT SP IPHASW D HRMM SECON CODA AMPLIT PERI AZIMU VELO AIN AR TRES W  DIS CAZ7
 RABL     P   1    937 50.00                                                    
 RABL     S   1    938  0.40                                                    
 LIHIR    P   1    937 53.90                                                    
 LASU     P   1    938  4.90                                                    
 KIMBE    P   1    938 21.20                                                    

 2014 1220 2016 46.2 L  -6.120 155.320189.0       6 0.9 4.0L sotonPNG2014ywms                   1
 STAT SP IPHASW D HRMM SECON CODA AMPLIT PERI AZIMU VELO AIN AR TRES W  DIS CAZ7
 ARAWA    P   1   2017 11.50                                                    
 ARAWA    S   0   2017 14.40                                                    
 BUIN     P   1   2017 14.60                                                    
 BUIN     S   1   2017 35.90                                                    
 LASU     P   1   2017 35.50                                                    
 RABL     P   1   2017 40.80                                                    

 2014 1221 0429 30.2 L  -4.070 151.990200.0       4 0.1 3.6L sotonPNG2014yxcz                   1
 STAT SP IPHASW D HRMM SECON CODA AMPLIT PERI AZIMU VELO AIN AR TRES W  DIS CAZ7
 RABL     P   1    429 57.50                                                    
 LASU     P   1    430  1.60                                                    
 LIHIR    P   1    430  2.30                                                    
 KAVI     P   1    430  8.60                                                    

 2014 1221 0951  0.9 L  -3.780 152.560 17.0       5 2.3 3.9L sotonPNG2014yxnp                   1
 STAT SP IPHASW D HRMM SECON CODA AMPLIT PERI AZIMU VELO AIN AR TRES W  DIS CAZ7
 RABL     P   1    951 12.20                                                    
 LIHIR    P   1    951 19.20                                                    
 LIHIR    S   1    951 21.60                                                    
 KAVI     P   1    951 36.20                                                    
 ARAWA    P   1    951 58.90                                                    

 2014 1223 1424 35.5 L  -5.380 154.560107.0       6 0.5 4.3L sotonPNG2014zbnp                   1
 STAT SP IPHASW D HRMM SECON CODA AMPLIT PERI AZIMU VELO AIN AR TRES W  DIS CAZ7
 ARAWA    P   1   1425  0.60                                                    
 LASU     P   1   1425  5.30                                                    
 LASU     S   1   1425 31.30                                                    
 RABL     P   1   1425 19.30                                                    
 RABL     S   1   1425 51.00                                                    
 LIHIR    P   1   1425 22.60                                                    

 2014 1228 0346 32.3 L  -6.040 154.490121.0      12 2.3 5.2L sotonPNG2014zjwc                   1
 STAT SP IPHASW D HRMM SECON CODA AMPLIT PERI AZIMU VELO AIN AR TRES W  DIS CAZ7
 ARAWA    P   1    346 56.10                                                    
 ARAWA    S   1    347 13.00                                                    
 BUIN     P   1    347  0.20                                                    
 BUIN     S   1    347 22.10                                                    
 LASU     P   1    347 10.30                                                    
 LASU     S   1    347 37.80                                                    
 RABL     P   1    347 21.40                                                    
 RABL     S   1    347 58.90                                                    
 LIHIR    P   1    347 26.50                                                    
 LIHIR    S   1    348  5.90                                                    
 BUTIA    P   1    347 32.10                                                    
 KIMBE    P   1    347  0.70                                                    

 2014 1228 0416 58.3 L  -7.370 153.930 20.0      12 2.3 5.1L sotonPNG2014zjxc                   1
 STAT SP IPHASW D HRMM SECON CODA AMPLIT PERI AZIMU VELO AIN AR TRES W  DIS CAZ7
 BUIN     P   1    417 27.90                                                    
 BUIN     S   0    417 42.80                                                    
 ARAWA    P   1    417 39.20                                                    
 ARAWA    S   0    417 41.00                                                    
 BUTIA    P   1    417 45.60                                                    
 LASU     P   1    417 46.30                                                    
 LASU     S   0    417 54.10                                                    
 RABL     P   1    417 51.60                                                    
 KIMBE    P   1    418  1.10                                                    
 KIMBE    S   0    418 40.00                                                    
 LIHIR    P   1    418  4.50                                                    
 MANU     P   1    418 57.90                                                    

 2014 1228 1708 24.5 L  -6.350 155.520 74.0       9 0.7 5.1L sotonPNG2014zkwn                   1
 STAT SP IPHASW D HRMM SECON CODA AMPLIT PERI AZIMU VELO AIN AR TRES W  DIS CAZ7
 ARAWA    P   1   17 8 36.50                                                    
 ARAWA    S   1   17 8 45.50                                                    
 BUIN     P   1   17 8 38.00                                                    
 BUIN     S   1   17 8 48.30                                                    
 LASU     P   1   17 9 10.70                                                    
 RABL     P   1   1710 13.60                                                    
 LIHIR    P   1   17 9 27.50                                                    
 KIMBE    P   1   1710 28.20                                                    
 KAVI     P   1   1712  0.00                                                    

 2014 1228 2242 16.3 L  -4.110 153.270  5.0       4 0.0 3.9L sotonPNG2014zlho                   1
 STAT SP IPHASW D HRMM SECON CODA AMPLIT PERI AZIMU VELO AIN AR TRES W  DIS CAZ7
 LASU     P   1   2242 22.70                                                    
 LASU     S   1   2242 27.70                                                    
 RABL     P   1   2242 37.30                                                    
 LIHIR    P   1   2242 39.30                                                    

 2014 1230 0610 32.7 L  -4.110 152.940 10.0       8 1.5 4.3L sotonPNG2014znrv                   1
 STAT SP IPHASW D HRMM SECON CODA AMPLIT PERI AZIMU VELO AIN AR TRES W  DIS CAZ7
 LASU     P   1    610 38.60                                                    
 LASU     S   1    610 49.10                                                    
 RABL     P   1    610 50.10                                                    
 RABL     S   0    611 10.30                                                    
 LIHIR    P   1    610 53.90                                                    
 LIHIR    S   1    611 14.90                                                    
 ARAWA    P   1    611 37.20                                                    
 BUIN     P   1    611 36.90                                                    

 2014 1230 2123 51.2 L  -6.220 155.550  5.0      10 0.0 5.2L sotonPNG2014zovw                   1
 STAT SP IPHASW D HRMM SECON CODA AMPLIT PERI AZIMU VELO AIN AR TRES W  DIS CAZ7
 ARAWA    P   1   2122 34.30                                                    
 BUIN     P   1   2125 19.50                                                    
 BUIN     S   0   2125 21.50                                                    
 LASU     P   1   2127 21.30                                                    
 RABL     P   1   2123  8.00                                                    
 LIHIR    P   1   2123  9.30                                                    
 BUTIA    P   1   2124  6.00                                                    
 BUTIA    S   1   2124 16.10                                                    
 KIMBE    P   1   2123 23.00                                                    
 KAVI     P   1   2123 25.30                                                    

 2014 1231 1420 27.7 L  -4.880 151.680 35.0       7 2.7 4.9L sotonPNG2014zqdn                   1
 STAT SP IPHASW D HRMM SECON CODA AMPLIT PERI AZIMU VELO AIN AR TRES W  DIS CAZ7
 RABL     P   1   1420 47.80                                                    
 RABL     S   1   1420 50.90                                                    
 LASU     P   1   1420 52.90                                                    
 LASU     S   0   1420 54.30                                                    
 KIMBE    P   1   1420 54.00                                                    
 KIMBE    S   0   1421  1.10                                                    
 LIHIR    P   1   1421  4.80                                                    

 2015  105 0518 53.4 L  -4.160 151.490 10.0       6 2.5 4.9L sotonPNG2015ahsn                   1
 STAT SP IPHASW D HRMM SECON CODA AMPLIT PERI AZIMU VELO AIN AR TRES W  DIS CAZ7
 RABL     P   1    519  8.50                                                    
 RABL     S   1    519 13.30                                                    
 LIHIR    P   1    519 23.30                                                    
 LASU     P   1    519 23.00                                                    
 KAVI     P   1    519 21.00                                                    
 BUIN     P   1    520  9.10                                                    

 2015  106 2042 45.4 L  -3.460 152.850219.0      10 0.5 4.9L sotonPNG2015aksn                   1
 STAT SP IPHASW D HRMM SECON CODA AMPLIT PERI AZIMU VELO AIN AR TRES W  DIS CAZ7
 LIHIR    P   1   2043 15.80                                                    
 LIHIR    S   1   2043 38.70                                                    
 LASU     P   1   2043 17.50                                                    
 LASU     S   1   2043 42.40                                                    
 RABL     P   1   2043 18.70                                                    
 RABL     S   1   2043 44.10                                                    
 KAVI     P   1   2043 28.80                                                    
 KIMBE    P   1   2043 40.00                                                    
 ARAWA    P   1   2043 47.10                                                    
 BUIN     P   1   2043 53.30                                                    

 2015  107 2150 54.0 L  -7.360 153.330  5.0       6 0.5 5.2L sotonPNG2015amqg                   1
 STAT SP IPHASW D HRMM SECON CODA AMPLIT PERI AZIMU VELO AIN AR TRES W  DIS CAZ7
 ARAWA    P   1   2151 34.60                                                    
 ARAWA    S   0   2151 36.70                                                    
 BUTIA    P   1   2151 34.80                                                    
 LASU     P   1   2151 43.50                                                    
 RABL     P   1   2151 45.70                                                    
 LIHIR    P   1   2151 48.80                                                    

 2015  108 1312 14.5 L  -4.460 152.280150.0       4 0.2 3.6L sotonPNG2015anur                   1
 STAT SP IPHASW D HRMM SECON CODA AMPLIT PERI AZIMU VELO AIN AR TRES W  DIS CAZ7
 RABL     P   1   1312 36.10                                                    
 LIHIR    P   1   1312 43.90                                                    
 KAVI     P   1   1312 55.40                                                    
 KIMBE    P   1   1312 55.30                                                    

 2015  111 0839 24.1 L  -3.380 154.240 35.0       6 0.6 5.4L sotonPNG2015asye                   1
 STAT SP IPHASW D HRMM SECON CODA AMPLIT PERI AZIMU VELO AIN AR TRES W  DIS CAZ7
 LIHIR    P   1    839 50.60                                                    
 RABL     P   1    839 59.10                                                    
 ARAWA    P   1    840 11.30                                                    
 KAVI     P   1    840 19.80                                                    
 BUIN     P   1    840 18.60                                                    
 KIMBE    P   1    840 33.10                                                    

 2015  111 2224 32.7 L  -4.820 153.300 27.0       7 0.1 4.5L sotonPNG2015atzk                   1
 STAT SP IPHASW D HRMM SECON CODA AMPLIT PERI AZIMU VELO AIN AR TRES W  DIS CAZ7
 LASU     P   1   2224 43.90                                                    
 LASU     S   1   2224 53.50                                                    
 RABL     P   1   2224 55.20                                                    
 LIHIR    P   1   2225  3.00                                                    
 ARAWA    P   1   2225 13.70                                                    
 ARAWA    S   1   2225 46.40                                                    
 KAVI     P   1   2225 26.40                                                    

