 2015  331 1203 17.1 L  -6.040 152.700 40.0       8 2.0 4.6L sotonPNG2015ghnq                   1
 STAT SP IPHASW D HRMM SECON CODA AMPLIT PERI AZIMU VELO AIN AR TRES W  DIS CAZ7
 LASU     P   1   12 3 43.00                                                    
 LASU     S   0   12 3 58.90                                                    
 RABL     P   1   12 3 49.70                                                    
 ARAWA    P   1   12 4  6.30                                                    
 ARAWA    S   1   12 4 33.40                                                    
 BUTIA    P   1   12 4  1.20                                                    
 LIHIR    P   1   12 4  2.40                                                    
 LIHIR    S   0   12 4 29.40                                                    

 2015  331 1218  7.2 L  -6.240 152.110100.0       4 0.2 6.3L sotonPNG2015ghod                   1
 STAT SP IPHASW D HRMM SECON CODA AMPLIT PERI AZIMU VELO AIN AR TRES W  DIS CAZ7
 RABL     P   1   1218 41.50                                                    
 LASU     P   1   1218 42.70                                                    
 BUTIA    P   1   1218 46.70                                                    
 LIHIR    P   1   1218 56.20                                                    

 2015  331 1649 34.6 L  -7.200 150.920450.0      12 1.6 5.6L sotonPNG2015ghxb                   1
 STAT SP IPHASW D HRMM SECON CODA AMPLIT PERI AZIMU VELO AIN AR TRES W  DIS CAZ7
 BUTIA    P   1   1650 32.80                                                    
 RABL     P   1   1650 45.70                                                    
 RABL     S   0   1650 49.90                                                    
 LASU     P   1   1650 43.10                                                    
 LIHIR    P   1   1650 59.80                                                    
 LIHIR    S   0   1651 17.90                                                    
 KAVI     P   1   1651 23.70                                                    
 KAVI     S   0   1651 32.10                                                    
 ARAWA    P   1   1651  3.40                                                    
 ARAWA    S   0   1651 18.90                                                    
 BUIN     P   1   1650 59.20                                                    
 BUIN     S   0   1651  0.70                                                    

 2015  331 1800  3.4 L  -5.430 153.070  5.0       4 0.4 4.1L sotonPNG2015ghzk                   1
 STAT SP IPHASW D HRMM SECON CODA AMPLIT PERI AZIMU VELO AIN AR TRES W  DIS CAZ7
 LASU     P   1   18 0 24.30                                                    
 RABL     P   1   18 0 30.50                                                    
 LIHIR    P   1   18 0 44.00                                                    
 ARAWA    P   1   18 0 45.70                                                    

 2015  331 1820 56.8 L  -5.420 152.800175.0       7 2.2 4.5L sotonPNG2015giac                   1
 STAT SP IPHASW D HRMM SECON CODA AMPLIT PERI AZIMU VELO AIN AR TRES W  DIS CAZ7
 LASU     P   1   1821 23.30                                                    
 LASU     S   1   1821 47.70                                                    
 RABL     P   1   1821 27.40                                                    
 LIHIR    P   1   1821 40.90                                                    
 LIHIR    S   1   1822 21.80                                                    
 ARAWA    P   1   1821 45.10                                                    
 ARAWA    S   0   1821 47.50                                                    

 2015  331 1844  2.7 L  -4.310 152.840 10.0       6 2.3 3.8L sotonPNG2015giaw                   1
 STAT SP IPHASW D HRMM SECON CODA AMPLIT PERI AZIMU VELO AIN AR TRES W  DIS CAZ7
 LASU     P   1   1844 10.20                                                    
 LASU     S   0   1844 12.20                                                    
 RABL     P   1   1844 13.60                                                    
 RABL     S   1   1844 32.50                                                    
 LIHIR    P   1   1844 28.90                                                    
 ARAWA    P   1   1845  0.00                                                    

 2015  401 0046 59.9 L  -5.420 153.150135.0       6 2.1 4.2L sotonPNG2015gimv                   1
 STAT SP IPHASW D HRMM SECON CODA AMPLIT PERI AZIMU VELO AIN AR TRES W  DIS CAZ7
 LASU     P   1    047 29.40                                                    
 LASU     S   1    047 45.50                                                    
 RABL     P   1    047 32.70                                                    
 RABL     S   1    047 50.10                                                    
 LIHIR    P   1    047 38.90                                                    
 ARAWA    P   1    047 41.10                                                    

 2015  401 0313 44.9 L  -5.110 152.310 60.0       4 0.1 4.0L sotonPNG2015girr                   1
 STAT SP IPHASW D HRMM SECON CODA AMPLIT PERI AZIMU VELO AIN AR TRES W  DIS CAZ7
 RABL     P   1    314  2.60                                                    
 LASU     P   1    314  5.20                                                    
 LIHIR    P   1    314 18.00                                                    
 ARAWA    P   1    314 36.50                                                    

 2015  401 1257 48.3 L  -4.690 153.030 10.0       5 1.4 3.9L sotonPNG2015gjky                   1
 STAT SP IPHASW D HRMM SECON CODA AMPLIT PERI AZIMU VELO AIN AR TRES W  DIS CAZ7
 LASU     P   1   1257 58.60                                                    
 LASU     S   1   1258  8.80                                                    
 RABL     P   1   1258  8.70                                                    
 LIHIR    P   1   1258 24.40                                                    
 BUIN     P   1   1258 42.80                                                    

 2015  401 1350 20.1 L  -8.300 153.920  5.0       5 0.8 4.8L sotonPNG2015gjmr                   1
 STAT SP IPHASW D HRMM SECON CODA AMPLIT PERI AZIMU VELO AIN AR TRES W  DIS CAZ7
 ARAWA    P   1   1351  2.50                                                    
 BUTIA    P   1   1351  5.00                                                    
 LASU     P   1   1351 24.40                                                    
 RABL     P   1   1351 24.10                                                    
 LIHIR    P   1   1351 42.20                                                    

 2015  401 1405  4.7 L  -4.350 152.480 47.0       7 2.7 3.9L sotonPNG2015gjnd                   1
 STAT SP IPHASW D HRMM SECON CODA AMPLIT PERI AZIMU VELO AIN AR TRES W  DIS CAZ7
 RABL     P   1   14 5 14.60                                                    
 RABL     S   0   14 5 17.60                                                    
 LASU     P   1   14 5  8.60                                                    
 LASU     S   1   14 5 30.10                                                    
 LIHIR    P   1   14 5 27.10                                                    
 ARAWA    P   1   14 5 54.70                                                    
 BUIN     P   1   14 6  7.90                                                    

 2015  402 1137  6.2 L  -4.990 153.500166.0       5 1.4 3.8L sotonPNG2015gldu                   1
 STAT SP IPHASW D HRMM SECON CODA AMPLIT PERI AZIMU VELO AIN AR TRES W  DIS CAZ7
 LASU     P   1   1137 32.30                                                    
 LASU     S   1   1137 52.20                                                    
 RABL     P   1   1137 37.90                                                    
 LIHIR    P   1   1137 52.60                                                    
 ARAWA    P   1   1137 47.70                                                    

 2015  402 1437 41.8 L  -4.270 153.030153.0       6 1.8 3.8L sotonPNG2015gljt                   1
 STAT SP IPHASW D HRMM SECON CODA AMPLIT PERI AZIMU VELO AIN AR TRES W  DIS CAZ7
 LASU     P   1   1438  0.80                                                    
 LASU     S   1   1438 20.60                                                    
 RABL     P   1   1438  3.90                                                    
 RABL     S   1   1438 27.10                                                    
 LIHIR    P   1   1438 11.70                                                    
 BUIN     P   1   1439  3.20                                                    

 2015  402 1501  1.5 L  -7.350 150.500450.0      10 2.3 5.8L sotonPNG2015glkn                   1
 STAT SP IPHASW D HRMM SECON CODA AMPLIT PERI AZIMU VELO AIN AR TRES W  DIS CAZ7
 BUTIA    P   1   15 1 59.70                                                    
 RABL     P   1   15 2 16.00                                                    
 RABL     S   0   15 2 34.10                                                    
 LASU     P   1   15 2 10.70                                                    
 LASU     S   0   15 2 25.30                                                    
 LIHIR    P   1   15 2 30.00                                                    
 LIHIR    S   0   15 2 58.70                                                    
 ARAWA    P   1   15 2 41.00                                                    
 BUIN     P   1   15 2 49.10                                                    
 BUIN     S   1   15 2 55.50                                                    

 2015  402 1533 47.7 L  -4.880 152.940 60.0       5 1.0 4.2L sotonPNG2015gllp                   1
 STAT SP IPHASW D HRMM SECON CODA AMPLIT PERI AZIMU VELO AIN AR TRES W  DIS CAZ7
 LASU     P   1   1534  0.40                                                    
 RABL     P   1   1534  6.10                                                    
 RABL     S   0   1534 23.70                                                    
 LIHIR    P   1   1534 19.60                                                    
 ARAWA    P   1   1534 32.60                                                    

 2015  402 1914 52.2 L  -5.070 153.020  3.0       6 0.1 4.0L sotonPNG2015glsw                   1
 STAT SP IPHASW D HRMM SECON CODA AMPLIT PERI AZIMU VELO AIN AR TRES W  DIS CAZ7
 LASU     P   1   1915  7.90                                                    
 LASU     S   1   1915 20.40                                                    
 RABL     P   1   1915 15.30                                                    
 RABL     S   1   1915 33.80                                                    
 LIHIR    P   1   1915 27.60                                                    
 ARAWA    P   1   1915 37.40                                                    

 2015  402 2023 37.6 L  -4.920 153.390164.0      10 1.9 4.8L sotonPNG2015glvd                   1
 STAT SP IPHASW D HRMM SECON CODA AMPLIT PERI AZIMU VELO AIN AR TRES W  DIS CAZ7
 LASU     P   1   2024  2.50                                                    
 LASU     S   1   2024 22.40                                                    
 RABL     P   1   2024  7.10                                                    
 RABL     S   0   2024 10.30                                                    
 LIHIR    P   1   2024 20.40                                                    
 LIHIR    S   0   2024 23.50                                                    
 ARAWA    P   1   2024 20.40                                                    
 ARAWA    S   0   2024 26.40                                                    
 KAVI     P   1   2024 45.60                                                    
 MANU     P   1   2025 17.90                                                    

 2015  402 2051 29.8 L  -5.440 155.160 25.0      13 0.0 5.1L sotonPNG2015glwb                   1
 STAT SP IPHASW D HRMM SECON CODA AMPLIT PERI AZIMU VELO AIN AR TRES W  DIS CAZ7
 ARAWA    P   1   2049 47.80                                                    
 BUIN     P   1   2054 51.20                                                    
 LASU     P   1   2052 15.70                                                    
 LASU     S   1   2052 18.60                                                    
 RABL     P   1   2052  1.90                                                    
 RABL     S   1   2052 23.10                                                    
 LIHIR    P   1   2052 46.80                                                    
 LIHIR    S   1   2052 48.30                                                    
 BUTIA    P   1   2051  5.10                                                    
 BUTIA    S   1   2051  9.20                                                    
 KAVI     P   1   2052 32.20                                                    
 MANU     P   1   2052  7.30                                                    
 MANU     S   1   2052 20.10                                                    

 2015  403 0911 50.2 L  -5.030 153.320119.0      12 1.9 5.1L sotonPNG2015gmum                   1
 STAT SP IPHASW D HRMM SECON CODA AMPLIT PERI AZIMU VELO AIN AR TRES W  DIS CAZ7
 LASU     P   1    912 11.70                                                    
 LASU     S   1    912 27.10                                                    
 RABL     P   1    912 16.10                                                    
 RABL     S   0    912 22.20                                                    
 LIHIR    P   1    912 29.50                                                    
 LIHIR    S   1    912 58.80                                                    
 ARAWA    P   1    912 29.70                                                    
 ARAWA    S   0    912 35.00                                                    
 BUIN     P   1    912 37.20                                                    
 BUIN     S   0    912 49.50                                                    
 KAVI     P   1    912 46.80                                                    
 KAVI     S   1    912 59.80                                                    

 2015  403 1047 15.2 L  -6.420 155.610156.0      12 1.9 5.2L sotonPNG2015gmxq                   1
 STAT SP IPHASW D HRMM SECON CODA AMPLIT PERI AZIMU VELO AIN AR TRES W  DIS CAZ7
 ARAWA    P   1   1047 36.30                                                    
 ARAWA    S   1   1047 53.90                                                    
 BUIN     P   1   1047 36.80                                                    
 BUIN     S   1   1047 55.30                                                    
 LASU     P   1   1048 11.00                                                    
 LASU     S   0   1048 34.10                                                    
 RABL     P   1   1048 14.90                                                    
 RABL     S   1   1048 18.20                                                    
 LIHIR    P   1   1048 28.80                                                    
 LIHIR    S   1   1048 33.40                                                    
 KAVI     P   1   1048 45.50                                                    
 KAVI     S   1   1048 55.40                                                    

 2015  403 1115 43.2 L  -4.610 152.830  5.0       4 2.2 3.5L sotonPNG2015gmyo                   1
 STAT SP IPHASW D HRMM SECON CODA AMPLIT PERI AZIMU VELO AIN AR TRES W  DIS CAZ7
 LASU     P   1   1115 51.40                                                    
 RABL     P   1   1115 56.80                                                    
 LIHIR    P   1   1116 14.50                                                    
 ARAWA    P   1   1116 33.70                                                    

 2015  403 1922 22.8 L  -5.160 153.120  5.0       9 0.6 5.6L sotonPNG2015gnoq                   1
 STAT SP IPHASW D HRMM SECON CODA AMPLIT PERI AZIMU VELO AIN AR TRES W  DIS CAZ7
 LASU     P   1   1922 40.10                                                    
 LASU     S   1   1922 52.70                                                    
 RABL     P   1   1922 46.90                                                    
 RABL     S   1   1923  7.20                                                    
 LIHIR    P   1   1922 59.30                                                    
 ARAWA    P   1   1923  5.20                                                    
 BUIN     P   1   1923 11.50                                                    
 KAVI     P   1   1923 18.30                                                    
 MANU     P   1   1923 58.60                                                    

 2015  403 1938  7.6 L  -4.630 152.850  5.0       4 0.5 3.5L sotonPNG2015gnpd                   1
 STAT SP IPHASW D HRMM SECON CODA AMPLIT PERI AZIMU VELO AIN AR TRES W  DIS CAZ7
 LASU     P   1   1938 16.60                                                    
 RABL     P   1   1938 23.40                                                    
 LIHIR    P   1   1938 36.50                                                    
 ARAWA    P   1   1938 57.40                                                    

 2015  403 1940 15.1 L  -4.210 152.130  5.0       5 0.0 3.5L sotonPNG2015gnpf                   1
 STAT SP IPHASW D HRMM SECON CODA AMPLIT PERI AZIMU VELO AIN AR TRES W  DIS CAZ7
 RABL     P   1   1938 23.40                                                    
 LASU     P   1   1942 40.50                                                    
 LIHIR    P   1   1941 20.20                                                    
 LIHIR    S   0   1941 22.50                                                    
 ARAWA    P   1   1938 57.40                                                    

 2015  403 1956 53.3 L  -4.550 152.880  4.0       5 1.8 3.8L sotonPNG2015gnpt                   1
 STAT SP IPHASW D HRMM SECON CODA AMPLIT PERI AZIMU VELO AIN AR TRES W  DIS CAZ7
 LASU     P   1   1957  2.80                                                    
 LASU     S   1   1957  5.30                                                    
 RABL     P   1   1957  7.70                                                    
 LIHIR    P   1   1957 22.70                                                    
 ARAWA    P   1   1957 43.40                                                    

 2015  404 0408 38.6 L  -4.920 153.160104.0      13 2.3 5.5L sotonPNG2015gofz                   1
 STAT SP IPHASW D HRMM SECON CODA AMPLIT PERI AZIMU VELO AIN AR TRES W  DIS CAZ7
 LASU     P   1    4 8 56.20                                                    
 LASU     S   0    4 9 20.80                                                    
 RABL     P   1    4 8 59.60                                                    
 RABL     S   1    4 9 23.40                                                    
 LIHIR    P   1    4 9 13.50                                                    
 LIHIR    S   0    4 9 16.70                                                    
 ARAWA    P   1    4 9 19.20                                                    
 ARAWA    S   0    4 9 27.80                                                    
 BUIN     P   1    4 9 29.40                                                    
 BUIN     S   0    4 9 44.60                                                    
 KAVI     P   1    410 26.60                                                    
 MANU     P   1    4 9 39.70                                                    
 MANU     S   1    410 14.90                                                    

