 2014 1124 1321 26.1 L  -4.650 152.230150.0       4 0.2 3.9L sotonPNG2014xaly                   1
 STAT SP IPHASW D HRMM SECON CODA AMPLIT PERI AZIMU VELO AIN AR TRES W  DIS CAZ7
 RABL     P   1   1321 47.90                                                    
 KAVI     P   1   1322  8.50                                                    
 BUKA     P   1   1322  8.80                                                    
 ARAWA    P   1   1322 23.40                                                    

 2014 1124 2226 53.9 L  -4.760 153.560 78.0       7 0.7 4.7L sotonPNG2014xbdy                   1
 STAT SP IPHASW D HRMM SECON CODA AMPLIT PERI AZIMU VELO AIN AR TRES W  DIS CAZ7
 LASU     P   1   2227  9.90                                                    
 BUKA     P   1   2227 16.50                                                    
 BUKA     S   1   2227 34.00                                                    
 RABL     P   1   2227 19.70                                                    
 ARAWA    P   1   2227 33.90                                                    
 ARAWA    S   1   2228  4.40                                                    
 KAVI     P   1   2227 46.60                                                    

 2014 1125 1936  1.3 L  -4.550 153.010 75.0       6 0.9 4.0L sotonPNG2014xctu                   1
 STAT SP IPHASW D HRMM SECON CODA AMPLIT PERI AZIMU VELO AIN AR TRES W  DIS CAZ7
 LASU     P   1   1936 13.60                                                    
 LASU     S   1   1936 23.60                                                    
 RABL     P   1   1936 19.60                                                    
 BUKA     P   1   1936 31.10                                                    
 KAVI     P   1   1936 49.50                                                    
 ARAWA    P   1   1936 49.10                                                    

 2014 1126 1640 28.9 L  -4.590 153.150 74.0      10 1.6 5.2L sotonPNG2014xejn                   1
 STAT SP IPHASW D HRMM SECON CODA AMPLIT PERI AZIMU VELO AIN AR TRES W  DIS CAZ7
 LASU     P   1   1640 42.00                                                    
 LASU     S   1   1640 51.30                                                    
 RABL     P   1   1640 48.50                                                    
 BUKA     P   1   1640 57.70                                                    
 BUKA     S   1   1641 18.90                                                    
 ARAWA    P   1   1641 15.10                                                    
 ARAWA    S   1   1641 16.50                                                    
 KAVI     P   1   1641 18.60                                                    
 MANU     P   1   1642  3.60                                                    
 MANU     S   1   1642  7.70                                                    

 2014 1128 1503 54.7 L  -5.010 151.570161.0       9 0.5 5.2L sotonPNG2014xhxi                   1
 STAT SP IPHASW D HRMM SECON CODA AMPLIT PERI AZIMU VELO AIN AR TRES W  DIS CAZ7
 RABL     P   1   15 4 20.80                                                    
 RABL     S   0   15 4 40.40                                                    
 LASU     P   1   15 4 28.30                                                    
 LASU     S   1   15 4 54.50                                                    
 LIHIR    P   1   15 4 33.30                                                    
 KAVI     P   1   15 4 38.30                                                    
 ARAWA    P   1   15 4 41.50                                                    
 ARAWA    S   0   15 5  1.40                                                    
 MANU     P   1   15 5 11.90                                                    

 2014 1129 0102 10.9 L  -3.710 153.840 34.0       5 1.5 4.4L sotonPNG2014xirb                   1
 STAT SP IPHASW D HRMM SECON CODA AMPLIT PERI AZIMU VELO AIN AR TRES W  DIS CAZ7
 LASU     P   1    1 2 30.60                                                    
 LASU     S   1    1 2 40.30                                                    
 LIHIR    P   1    1 2 32.20                                                    
 RABL     P   1    1 2 41.70                                                    
 BUKA     P   1    1 2 40.90                                                    

 2014 1130 2156 50.6 L  -5.400 154.660 10.0       4 0.0 3.4L sotonPNG2014xmby                   1
 STAT SP IPHASW D HRMM SECON CODA AMPLIT PERI AZIMU VELO AIN AR TRES W  DIS CAZ7
 BUKA     P   1   2155  2.00                                                    
 ARAWA    P   1   2158 55.00                                                    
 BUIN     P   1   2158 44.80                                                    
 LIHIR    P   1   2155 35.90                                                    

 2014 1203 0515 38.1 L  -4.290 153.020 -1.0       7 1.1 3.6L sotonPNG2014xqhl                   1
 STAT SP IPHASW D HRMM SECON CODA AMPLIT PERI AZIMU VELO AIN AR TRES W  DIS CAZ7
 LASU     P   1    515 44.00                                                    
 LASU     S   1    515 46.50                                                    
 RABL     P   1    515 54.00                                                    
 RABL     S   1    516 13.10                                                    
 LIHIR    P   1    516  4.80                                                    
 BUKA     P   1    516 15.20                                                    
 BUKA     S   0    516 17.60                                                    

 2014 1204 2225 58.9 L  -5.190 153.830277.0       9 0.0 4.3L sotonPNG2014xtky                   1
 STAT SP IPHASW D HRMM SECON CODA AMPLIT PERI AZIMU VELO AIN AR TRES W  DIS CAZ7
 BUKA     P   1   2224 45.90                                                    
 BUKA     S   1   2224 55.00                                                    
 ARAWA    P   1   2229 33.50                                                    
 BUIN     P   1   2228 20.40                                                    
 BUIN     S   0   2228 25.30                                                    
 LIHIR    P   1   2227 42.80                                                    
 LIHIR    S   1   2227 44.80                                                    
 KIMBE    P   1   2226 21.90                                                    
 KAVI     P   1   2228  9.70                                                    

 2014 1205 0302 37.7 L  -3.740 152.900 88.0       9 1.8 4.8L sotonPNG2014xtub                   1
 STAT SP IPHASW D HRMM SECON CODA AMPLIT PERI AZIMU VELO AIN AR TRES W  DIS CAZ7
 LASU     P   1    3 2 55.90                                                    
 LASU     S   1    3 3  5.30                                                    
 LIHIR    P   1    3 2 53.10                                                    
 LIHIR    S   1    3 3  9.90                                                    
 BUKA     P   1    3 3 22.20                                                    
 BUKA     S   1    3 3 45.50                                                    
 KIMBE    P   1    3 3 27.60                                                    
 KIMBE    S   0    3 3 28.80                                                    
 ARAWA    P   1    3 3 32.00                                                    

 2014 1205 1904 30.0 L  -6.340 155.580 75.0       5 0.2 3.6L sotonPNG2014xuzu                   1
 STAT SP IPHASW D HRMM SECON CODA AMPLIT PERI AZIMU VELO AIN AR TRES W  DIS CAZ7
 ARAWA    P   1   19 4 41.60                                                    
 BUIN     P   1   19 4 43.40                                                    
 BUKA     P   1   19 4 53.40                                                    
 BUKA     S   1   19 5 10.90                                                    
 RABL     P   1   19 5 27.80                                                    

 2014 1210 0654 49.1 L  -6.090 155.270200.0      10 2.3 5.1L sotonPNG2014ydff                   1
 STAT SP IPHASW D HRMM SECON CODA AMPLIT PERI AZIMU VELO AIN AR TRES W  DIS CAZ7
 ARAWA    P   1    655 16.90                                                    
 BUIN     P   1    655 17.90                                                    
 BUIN     S   0    655 19.20                                                    
 LASU     P   1    655 41.10                                                    
 LASU     S   1    655 52.20                                                    
 RABL     P   1    655 47.10                                                    
 RABL     S   0    655 54.30                                                    
 LIHIR    P   1    655 50.80                                                    
 LIHIR    S   0    656  8.10                                                    
 KAVI     P   1    656 15.20                                                    

 2014 1210 0905  3.2 L  -4.850 153.070 32.0      10 2.1 4.6L sotonPNG2014ydjn                   1
 STAT SP IPHASW D HRMM SECON CODA AMPLIT PERI AZIMU VELO AIN AR TRES W  DIS CAZ7
 LASU     P   1    9 5 19.40                                                    
 LASU     S   1    9 5 21.70                                                    
 RABL     P   1    9 5 22.80                                                    
 LIHIR    P   1    9 5 36.60                                                    
 ARAWA    P   1    9 5 47.40                                                    
 ARAWA    S   0    9 6 12.70                                                    
 KAVI     P   1    9 5 44.70                                                    
 BUIN     P   1    9 5 50.00                                                    
 BUIN     S   0    9 5 52.30                                                    
 MANU     P   1    9 6 28.80                                                    

 2014 1210 0925 56.2 L  -6.450 150.590320.0       7 1.8 4.9L sotonPNG2014ydkf                   1
 STAT SP IPHASW D HRMM SECON CODA AMPLIT PERI AZIMU VELO AIN AR TRES W  DIS CAZ7
 KIMBE    P   1    926 39.50                                                    
 KIMBE    S   1    927 14.10                                                    
 RABL     P   1    926 52.80                                                    
 LASU     P   1    926 49.50                                                    
 LASU     S   0    926 51.70                                                    
 LIHIR    P   1    927  6.80                                                    
 ARAWA    P   1    927 18.40                                                    

 2014 1210 1120 21.8 L  -5.800 155.090100.0       6 0.3 4.3L sotonPNG2014ydnz                   1
 STAT SP IPHASW D HRMM SECON CODA AMPLIT PERI AZIMU VELO AIN AR TRES W  DIS CAZ7
 ARAWA    P   1   1120 39.50                                                    
 ARAWA    S   0   1120 54.00                                                    
 BUIN     P   1   1120 44.30                                                    
 BUIN     S   1   1121  1.80                                                    
 LASU     P   1   1121  0.90                                                    
 RABL     P   1   1121 13.40                                                    

 2014 1210 2210 35.5 L  -6.420 154.380 38.0      14 2.3 5.2L sotonPNG2014yejl                   1
 STAT SP IPHASW D HRMM SECON CODA AMPLIT PERI AZIMU VELO AIN AR TRES W  DIS CAZ7
 ARAWA    P   1   2210 55.30                                                    
 ARAWA    S   1   2211  9.70                                                    
 BUIN     P   1   2210 59.30                                                    
 BUIN     S   1   2211 18.20                                                    
 LASU     P   1   2211 16.00                                                    
 LASU     S   1   2211 29.80                                                    
 RABL     P   1   2211 28.00                                                    
 RABL     S   0   2211 30.40                                                    
 LIHIR    P   1   2211 34.10                                                    
 LIHIR    S   0   2211 47.10                                                    
 BUTIA    P   1   2211 31.30                                                    
 KAVI     P   1   2211 55.10                                                    
 KAVI     S   0   2211 58.70                                                    
 MANU     P   1   2212 51.10                                                    

 2014 1211 0337  2.1 L  -4.520 153.220 60.0       4 0.1 4.2L sotonPNG2014yeuf                   1
 STAT SP IPHASW D HRMM SECON CODA AMPLIT PERI AZIMU VELO AIN AR TRES W  DIS CAZ7
 LASU     P   1    337 12.40                                                    
 RABL     P   1    337 22.10                                                    
 LIHIR    P   1    337 28.60                                                    
 LIHIR    S   1    337 49.20                                                    

 2014 1211 0348 15.9 L  -6.480 156.710640.0      14 1.8 5.0L sotonPNG2014yeup                   1
 STAT SP IPHASW D HRMM SECON CODA AMPLIT PERI AZIMU VELO AIN AR TRES W  DIS CAZ7
 BUIN     P   1    349 32.30                                                    
 BUIN     S   0    349 33.90                                                    
 ARAWA    P   1    349 28.80                                                    
 ARAWA    S   0    349 41.60                                                    
 LASU     P   1    349 50.30                                                    
 LASU     S   0    350  9.50                                                    
 RABL     P   1    350 48.00                                                    
 RABL     S   0    350 53.40                                                    
 LIHIR    P   1    350 10.00                                                    
 BUTIA    P   1    350 46.80                                                    
 KAVI     P   1    350 14.90                                                    
 KAVI     S   0    350 32.20                                                    
 MANU     P   1    351 14.80                                                    
 MANU     S   1    351 17.10                                                    

 2014 1212 1856  2.6 L  -6.060 154.930 10.0       7 1.4 4.2L sotonPNG2014yhua                   1
 STAT SP IPHASW D HRMM SECON CODA AMPLIT PERI AZIMU VELO AIN AR TRES W  DIS CAZ7
 ARAWA    P   1   1856 18.30                                                    
 ARAWA    S   1   1856 30.80                                                    
 BUIN     P   1   1856 22.10                                                    
 BUIN     S   1   1856 42.70                                                    
 LASU     P   1   1856 47.70                                                    
 LASU     S   1   1857 19.60                                                    
 RABL     P   1   1856 55.20                                                    

 2014 1213 1205 14.3 L  -4.350 152.720140.0       9 1.3 4.1L sotonPNG2014yjbz                   1
 STAT SP IPHASW D HRMM SECON CODA AMPLIT PERI AZIMU VELO AIN AR TRES W  DIS CAZ7
 LASU     P   1   12 5 36.60                                                    
 LASU     S   1   12 5 50.00                                                    
 RABL     P   1   12 5 35.80                                                    
 LIHIR    P   1   12 5 45.10                                                    
 LIHIR    S   1   12 6  2.10                                                    
 KAVI     P   1   12 5 55.90                                                    
 KAVI     S   0   12 6  1.40                                                    
 KIMBE    P   1   12 6  0.40                                                    
 BUIN     P   1   12 6 11.60                                                    

 2014 1213 1321 12.3 L  -5.480 150.150460.0       9 2.0 4.4L sotonPNG2014yjem                   1
 STAT SP IPHASW D HRMM SECON CODA AMPLIT PERI AZIMU VELO AIN AR TRES W  DIS CAZ7
 KIMBE    P   1   1322  9.00                                                    
 RABL     P   1   1322 20.10                                                    
 KAVI     P   1   1322 19.00                                                    
 LASU     P   1   1322 23.10                                                    
 LIHIR    P   1   1322 20.70                                                    
 MANU     P   1   1322 51.70                                                    
 ARAWA    P   1   1322 52.40                                                    
 ARAWA    S   1   1323 45.90                                                    
 BUIN     P   1   1324  5.20                                                    

 2014 1214 0210  3.4 L  -5.370 155.810180.0       6 0.0 4.2L sotonPNG2014ykdw                   1
 STAT SP IPHASW D HRMM SECON CODA AMPLIT PERI AZIMU VELO AIN AR TRES W  DIS CAZ7
 ARAWA    P   1    210 31.00                                                    
 ARAWA    S   1    210 52.90                                                    
 BUIN     P   1    210 35.10                                                    
 BUIN     S   0    210 37.70                                                    
 RABL     P   1    211  3.70                                                    
 LIHIR    P   1    211  5.10                                                    

 2014 1214 1836 51.0 L  -4.140 152.810 97.0       8 2.3 4.0L sotonPNG2014ylkk                   1
 STAT SP IPHASW D HRMM SECON CODA AMPLIT PERI AZIMU VELO AIN AR TRES W  DIS CAZ7
 LASU     P   1   1836 59.20                                                    
 LASU     S   1   1837 21.00                                                    
 RABL     P   1   1837  8.70                                                    
 RABL     S   0   1837 34.60                                                    
 LIHIR    P   1   1837 12.90                                                    
 LIHIR    S   0   1837 36.80                                                    
 ARAWA    P   1   1837 46.60                                                    
 BUIN     P   1   1838  3.50                                                    

 2014 1215 0040  6.1 L  -3.040 152.610200.0       5 0.0 4.0L sotonPNG2014ylwk                   1
 STAT SP IPHASW D HRMM SECON CODA AMPLIT PERI AZIMU VELO AIN AR TRES W  DIS CAZ7
 LIHIR    P   1    038 30.30                                                    
 RABL     P   1    042 37.00                                                    
 KIMBE    P   1    040 38.40                                                    
 ARAWA    P   1    042  6.70                                                    
 ARAWA    S   0    042  8.10                                                    

 2014 1215 0102 54.2 L  -4.440 152.790 20.0       4 0.8 4.2L sotonPNG2014ylxd                   1
 STAT SP IPHASW D HRMM SECON CODA AMPLIT PERI AZIMU VELO AIN AR TRES W  DIS CAZ7
 LASU     P   1    1 3  1.70                                                    
 RABL     P   1    1 3  7.00                                                    
 LIHIR    P   1    1 3 19.40                                                    
 ARAWA    P   1    1 3 45.20                                                    

