 2015  226 2344 49.8 L  -5.800 152.470  1.0       9 0.6 5.3L sotonPNG2015eade                   1
 STAT SP IPHASW D HRMM SECON CODA AMPLIT PERI AZIMU VELO AIN AR TRES W  DIS CAZ7
 LASU     P   1   2345 19.20                                                    
 LASU     S   1   2345 44.90                                                    
 RABL     P   1   2345 21.40                                                    
 RABL     S   1   2345 43.80                                                    
 LIHIR    P   1   2345 35.50                                                    
 LIHIR    S   1   2346 11.60                                                    
 ARAWA    P   1   2345 40.60                                                    
 ARAWA    S   0   2345 51.10                                                    
 KAVI     P   1   2345 51.50                                                    

 2015  227 0800  4.8 L  -4.980 152.660  5.0       4 0.1 4.4L sotonPNG2015eatn                   1
 STAT SP IPHASW D HRMM SECON CODA AMPLIT PERI AZIMU VELO AIN AR TRES W  DIS CAZ7
 LASU     P   1    8 0 20.80                                                    
 RABL     P   1    8 0 22.90                                                    
 LIHIR    P   1    8 0 37.80                                                    
 KIMBE    P   1    8 0 46.90                                                    

 2015  228 1051 38.8 L  -5.610 151.270  6.0       6 0.2 4.7L sotonPNG2015ecur                   1
 STAT SP IPHASW D HRMM SECON CODA AMPLIT PERI AZIMU VELO AIN AR TRES W  DIS CAZ7
 KIMBE    P   1   1052  0.10                                                    
 RABL     P   1   1052  8.20                                                    
 LASU     P   1   1052 15.30                                                    
 LASU     S   1   1052 45.50                                                    
 LIHIR    P   1   1052 25.30                                                    
 ARAWA    P   1   1052 44.90                                                    

 2015  301 0337 35.8 L  -2.190 150.520200.0       4 0.2 4.2L sotonPNG2015eebw                   1
 STAT SP IPHASW D HRMM SECON CODA AMPLIT PERI AZIMU VELO AIN AR TRES W  DIS CAZ7
 KAVI     P   1    338  3.70                                                    
 RABL     P   1    338 21.40                                                    
 MANU     P   1    338 28.50                                                    
 KIMBE    P   1    338 31.00                                                    

 2015  302 1739 15.1 L  -3.490 149.750 40.0       4 0.4 3.8L sotonPNG2015egzd                   1
 STAT SP IPHASW D HRMM SECON CODA AMPLIT PERI AZIMU VELO AIN AR TRES W  DIS CAZ7
 KAVI     P   1   1739 39.60                                                    
 KAVI     S   1   1739 56.70                                                    
 KIMBE    P   1   1739 47.80                                                    
 MANU     P   1   1739 57.80                                                    

 2015  305 0406 21.1 L  -4.870 153.430 82.0       6 0.4 4.5L sotonPNG2015elkv                   1
 STAT SP IPHASW D HRMM SECON CODA AMPLIT PERI AZIMU VELO AIN AR TRES W  DIS CAZ7
 LASU     P   1    4 6 37.10                                                    
 RABL     P   1    4 6 46.30                                                    
 LIHIR    P   1    4 6 54.00                                                    
 ARAWA    P   1    4 7  0.10                                                    
 BUIN     P   1    4 7  7.00                                                    
 KAVI     P   1    4 7 13.60                                                    

 2015  307 1842 19.0 L  -4.330 153.800150.0       5 1.8 3.8L sotonPNG2015eqes                   1
 STAT SP IPHASW D HRMM SECON CODA AMPLIT PERI AZIMU VELO AIN AR TRES W  DIS CAZ7
 LASU     P   1   1842 42.50                                                    
 RABL     P   1   1842 55.30                                                    
 RABL     S   0   1842 57.20                                                    
 LIHIR    P   1   1842 51.30                                                    
 ARAWA    P   1   1843  0.90                                                    

 2015  307 2219  3.2 L  -6.390 152.020 43.0       7 0.5 6.4L sotonPNG2015eqlw                   1
 STAT SP IPHASW D HRMM SECON CODA AMPLIT PERI AZIMU VELO AIN AR TRES W  DIS CAZ7
 RABL     P   1   2219 37.20                                                    
 LASU     P   1   2219 40.30                                                    
 LIHIR    P   1   2219 53.90                                                    
 ARAWA    P   1   2219 55.80                                                    
 BUIN     P   1   2219 58.60                                                    
 KAVI     P   1   2220  3.00                                                    
 MANU     P   1   2220 34.40                                                    

 2015  307 2238 17.1 L  -5.110 153.050 49.0       6 1.1 4.4L sotonPNG2015eqmn                   1
 STAT SP IPHASW D HRMM SECON CODA AMPLIT PERI AZIMU VELO AIN AR TRES W  DIS CAZ7
 LASU     P   1   2238 34.10                                                    
 LASU     S   1   2238 44.80                                                    
 RABL     P   1   2238 40.90                                                    
 RABL     S   1   2238 54.00                                                    
 LIHIR    P   1   2238 50.40                                                    
 ARAWA    P   1   2238 59.00                                                    

 2015  308 0103 36.6 L  -4.520 153.040 81.0       7 1.4 4.2L sotonPNG2015eqrh                   1
 STAT SP IPHASW D HRMM SECON CODA AMPLIT PERI AZIMU VELO AIN AR TRES W  DIS CAZ7
 LASU     P   1    1 3 49.20                                                    
 LASU     S   1    1 3 59.20                                                    
 RABL     P   1    1 3 55.50                                                    
 LIHIR    P   1    1 4  5.20                                                    
 LIHIR    S   1    1 4 24.00                                                    
 ARAWA    P   1    1 4 19.20                                                    
 ARAWA    S   1    1 5  1.20                                                    

 2015  316 0300  4.4 L  -4.190 152.150198.0      11 2.7 6.0L sotonPNG2015ffle                   1
 STAT SP IPHASW D HRMM SECON CODA AMPLIT PERI AZIMU VELO AIN AR TRES W  DIS CAZ7
 RABL     P   1    3 0 32.30                                                    
 LASU     P   1    3 0 35.70                                                    
 LASU     S   0    3 0 37.40                                                    
 LIHIR    P   1    3 0 36.40                                                    
 LIHIR    S   1    3 1  1.10                                                    
 KAVI     P   1    3 0 45.30                                                    
 ARAWA    P   1    3 1  8.30                                                    
 ARAWA    S   0    3 1 10.00                                                    
 BUIN     P   1    3 1 14.00                                                    
 BUTIA    P   1    3 0 52.30                                                    
 BUTIA    S   0    3 0 54.00                                                    

 2015  316 0321 36.1 L  -3.500 151.890241.0       5 0.4 3.9L sotonPNG2015fflw                   1
 STAT SP IPHASW D HRMM SECON CODA AMPLIT PERI AZIMU VELO AIN AR TRES W  DIS CAZ7
 RABL     P   1    322  9.90                                                    
 LIHIR    P   1    322 11.20                                                    
 LIHIR    S   1    322 36.80                                                    
 KAVI     P   1    322 13.70                                                    
 LASU     P   1    322 13.30                                                    

 2015  319 1111  0.2 L  -8.500 151.200 10.0      13 1.6 6.0L sotonPNG2015flnw                   1
 STAT SP IPHASW D HRMM SECON CODA AMPLIT PERI AZIMU VELO AIN AR TRES W  DIS CAZ7
 BUTIA    P   1   1112 58.20                                                    
 RABL     P   1   1113 10.70                                                    
 RABL     S   0   1113 14.00                                                    
 LASU     P   1   1113  1.20                                                    
 LASU     S   0   1113 22.50                                                    
 BUIN     P   1   1113 14.00                                                    
 BUIN     S   0   1113 26.20                                                    
 ARAWA    P   1   1113  5.10                                                    
 ARAWA    S   0   1113 16.80                                                    
 LIHIR    P   1   1113 20.80                                                    
 LIHIR    S   0   1113 48.80                                                    
 KAVI     P   1   1113 41.00                                                    
 KAVI     S   1   1113 51.10                                                    

 2015  320 0217  9.6 L  -2.860 150.580200.0       5 0.5 4.1L sotonPNG2015fmrt                   1
 STAT SP IPHASW D HRMM SECON CODA AMPLIT PERI AZIMU VELO AIN AR TRES W  DIS CAZ7
 KAVI     P   1    217 37.20                                                    
 KAVI     S   0    217 39.40                                                    
 RABL     P   1    217 50.50                                                    
 LASU     P   1    217 58.30                                                    
 MANU     P   1    218  4.10                                                    

 2015  320 0403 42.8 L  -4.210 152.190 10.0       4 0.0 3.8L sotonPNG2015fmvh                   1
 STAT SP IPHASW D HRMM SECON CODA AMPLIT PERI AZIMU VELO AIN AR TRES W  DIS CAZ7
 RABL     P   1    4 3  4.60                                                    
 LIHIR    P   1    4 3 39.50                                                    
 KAVI     P   1    4 8 40.00                                                    
 ARAWA    P   1    4 3 29.00                                                    

 2015  320 1001 23.2 L  -3.060 152.170  5.0       4 1.5 3.4L sotonPNG2015fnhc                   1
 STAT SP IPHASW D HRMM SECON CODA AMPLIT PERI AZIMU VELO AIN AR TRES W  DIS CAZ7
 LIHIR    P   1   10 1 33.10                                                    
 RABL     P   1   10 1 41.80                                                    
 KAVI     P   1   10 1 49.60                                                    
 LASU     P   1   10 1 53.80                                                    

 2015  320 1542 12.9 L  -8.290 151.510325.0      13 2.7 6.6L sotonPNG2015fnsi                   1
 STAT SP IPHASW D HRMM SECON CODA AMPLIT PERI AZIMU VELO AIN AR TRES W  DIS CAZ7
 BUTIA    P   1   1542 55.20                                                    
 RABL     P   1   1543 37.50                                                    
 RABL     S   1   1544 12.60                                                    
 LASU     P   1   1543 23.00                                                    
 LASU     S   0   1543 46.10                                                    
 BUIN     P   1   1543 27.90                                                    
 BUIN     S   0   1543 34.10                                                    
 ARAWA    P   1   1543 20.10                                                    
 ARAWA    S   0   1543 22.10                                                    
 LIHIR    P   1   1543 36.20                                                    
 LIHIR    S   1   1543 50.70                                                    
 KAVI     P   1   1544  2.10                                                    
 MANU     P   1   1544 48.90                                                    

 2015  321 1622 33.3 L  -3.760 152.250 60.0       4 0.1 2.8L sotonPNG2015fppe                   1
 STAT SP IPHASW D HRMM SECON CODA AMPLIT PERI AZIMU VELO AIN AR TRES W  DIS CAZ7
 RABL     P   1   1622 45.30                                                    
 LIHIR    P   1   1622 49.30                                                    
 LASU     P   1   1622 52.20                                                    
 KAVI     P   1   1623  3.60                                                    

 2015  323 1940  7.2 L  -4.300 153.520105.0       9 0.5 4.8L sotonPNG2015ftmr                   1
 STAT SP IPHASW D HRMM SECON CODA AMPLIT PERI AZIMU VELO AIN AR TRES W  DIS CAZ7
 LASU     P   1   1940 24.30                                                    
 RABL     P   1   1940 32.80                                                    
 LIHIR    P   1   1940 35.00                                                    
 LIHIR    S   1   1940 56.50                                                    
 ARAWA    P   1   1940 51.70                                                    
 ARAWA    S   1   1941 24.90                                                    
 KAVI     P   1   1940 56.90                                                    
 BUIN     P   1   1940 58.10                                                    
 BUIN     S   1   1941 35.70                                                    

 2015  324 1549 15.0 L  -5.380 151.310151.0      10 1.1 4.6L sotonPNG2015fvao                   1
 STAT SP IPHASW D HRMM SECON CODA AMPLIT PERI AZIMU VELO AIN AR TRES W  DIS CAZ7
 RABL     P   1   1549 43.90                                                    
 LASU     P   1   1549 53.00                                                    
 LASU     S   1   1550 22.50                                                    
 LIHIR    P   1   1549 59.10                                                    
 LIHIR    S   1   1550 33.10                                                    
 KAVI     P   1   1550  1.40                                                    
 ARAWA    P   1   1550 23.10                                                    
 ARAWA    S   1   1551  8.90                                                    
 BUIN     P   1   1551 18.10                                                    
 MANU     P   1   1550 31.10                                                    

 2015  324 1924 32.0 L  -1.890 151.660 36.0       5 0.4 4.1L sotonPNG2015fvhr                   1
 STAT SP IPHASW D HRMM SECON CODA AMPLIT PERI AZIMU VELO AIN AR TRES W  DIS CAZ7
 KAVI     P   1   1924 51.10                                                    
 LIHIR    P   1   1924 56.80                                                    
 LIHIR    S   1   1925 16.30                                                    
 RABL     P   1   1925  9.70                                                    
 MANU     P   1   1925 35.40                                                    

 2015  326 1237 26.2 L  -4.660 151.830165.0       8 2.1 4.0L sotonPNG2015fylg                   1
 STAT SP IPHASW D HRMM SECON CODA AMPLIT PERI AZIMU VELO AIN AR TRES W  DIS CAZ7
 RABL     P   1   1237 48.80                                                    
 LASU     P   1   1237 57.00                                                    
 LASU     S   1   1238 20.80                                                    
 KAVI     P   1   1238  8.20                                                    
 ARAWA    P   1   1238 23.70                                                    
 ARAWA    S   0   1238 27.90                                                    
 BUIN     P   1   1239 29.50                                                    
 BUIN     S   1   1239 32.40                                                    

 2015  328 1127 55.7 L  -6.440 156.670302.0      11 1.4 5.3L sotonPNG2015gbzz                   1
 STAT SP IPHASW D HRMM SECON CODA AMPLIT PERI AZIMU VELO AIN AR TRES W  DIS CAZ7
 BUIN     P   1   1128 37.50                                                    
 BUIN     S   0   1128 48.30                                                    
 ARAWA    P   1   1128 35.30                                                    
 ARAWA    S   0   1128 45.00                                                    
 LASU     P   1   1129  7.50                                                    
 LASU     S   0   1129 16.80                                                    
 RABL     P   1   1129 22.60                                                    
 RABL     S   0   1129 28.30                                                    
 LIHIR    P   1   1128 56.60                                                    
 BUTIA    P   1   1128 54.10                                                    
 KAVI     P   1   1130  0.60                                                    

 2015  329 2348 33.3 L  -4.610 152.710 23.0       8 1.4 6.7L sotonPNG2015getx                   1
 STAT SP IPHASW D HRMM SECON CODA AMPLIT PERI AZIMU VELO AIN AR TRES W  DIS CAZ7
 LASU     P   1   2348 47.50                                                    
 LASU     S   1   2348 51.00                                                    
 RABL     P   1   2348 47.20                                                    
 RABL     S   1   2348 57.30                                                    
 KAVI     P   1   2349 17.40                                                    
 ARAWA    P   1   2349 22.00                                                    
 BUIN     P   1   2349 27.40                                                    
 MANU     P   1   2350  0.70                                                    

 2015  330 0015 25.3 L  -3.100 152.660128.0      10 1.7 5.7L sotonPNG2015geuu                   1
 STAT SP IPHASW D HRMM SECON CODA AMPLIT PERI AZIMU VELO AIN AR TRES W  DIS CAZ7
 LIHIR    P   1    015 44.60                                                    
 LIHIR    S   0    016  5.70                                                    
 RABL     P   1    015 50.90                                                    
 RABL     S   1    016  8.00                                                    
 LASU     P   1    015 49.90                                                    
 LASU     S   1    016  9.60                                                    
 ARAWA    P   1    016  0.30                                                    
 ARAWA    S   0    016 19.40                                                    
 BUIN     P   1    016  9.80                                                    
 BUIN     S   0    016 21.00                                                    

 2015  330 0414 47.6 L  -5.090 152.970 59.0       6 0.6 4.6L sotonPNG2015gfcr                   1
 STAT SP IPHASW D HRMM SECON CODA AMPLIT PERI AZIMU VELO AIN AR TRES W  DIS CAZ7
 LASU     P   1    415  2.30                                                    
 LASU     S   1    415 16.70                                                    
 RABL     P   1    415  8.40                                                    
 LIHIR    P   1    415 20.90                                                    
 KAVI     P   1    415 38.00                                                    
 BUTIA    P   1    415 45.50                                                    

