 2015  212 1343 44.7 L  -3.600 151.490200.0       4 0.3 3.4L sotonPNG2015czuh                   1
 STAT SP IPHASW D HRMM SECON CODA AMPLIT PERI AZIMU VELO AIN AR TRES W  DIS CAZ7
 RABL     P   1   1344 15.10                                                    
 KAVI     P   1   1344 17.10                                                    
 LIHIR    P   1   1344 16.80                                                    
 KIMBE    P   1   1344 27.80                                                    

 2015  214 1113 45.5 L  -4.800 152.950 20.0       4 0.0 3.9L sotonPNG2015ddgj                   1
 STAT SP IPHASW D HRMM SECON CODA AMPLIT PERI AZIMU VELO AIN AR TRES W  DIS CAZ7
 LASU     P   1   1113 56.40                                                    
 RABL     P   1   1114  4.00                                                    
 LIHIR    P   1   1114 14.90                                                    
 ARAWA    P   1   1114 31.30                                                    

 2015  215 1256 41.5 L  -5.970 151.040 10.0      10 0.4 5.9L sotonPNG2015dffg                   1
 STAT SP IPHASW D HRMM SECON CODA AMPLIT PERI AZIMU VELO AIN AR TRES W  DIS CAZ7
 KIMBE    P   1   1257  2.60                                                    
 RABL     P   1   1257 18.60                                                    
 LASU     P   1   1257 26.10                                                    
 LASU     S   0   1257 28.30                                                    
 LIHIR    P   1   1257 34.90                                                    
 KAVI     P   1   1257 37.20                                                    
 ARAWA    P   1   1257 53.00                                                    
 ARAWA    S   0   1258 43.70                                                    
 BUIN     P   1   1258 50.60                                                    
 MANU     P   1   1258  6.20                                                    

 2015  216 1313 57.1 L  -6.080 152.870 35.0      11 2.3 4.4L sotonPNG2015dhbi                   1
 STAT SP IPHASW D HRMM SECON CODA AMPLIT PERI AZIMU VELO AIN AR TRES W  DIS CAZ7
 LASU     P   1   1314 25.60                                                    
 LASU     S   1   1314 47.60                                                    
 RABL     P   1   1314 31.30                                                    
 RABL     S   0   1314 38.60                                                    
 ARAWA    P   1   1314 38.40                                                    
 ARAWA    S   0   1314 47.80                                                    
 KIMBE    P   1   1314 38.90                                                    
 KIMBE    S   0   1314 57.20                                                    
 BUIN     P   1   1314 48.10                                                    
 BUIN     S   1   1315 12.30                                                    
 LIHIR    P   1   1314 43.90                                                    

 2015  216 2240 18.2 L  -5.540 150.110  5.0       4 0.0 4.7L sotonPNG2015dhua                   1
 STAT SP IPHASW D HRMM SECON CODA AMPLIT PERI AZIMU VELO AIN AR TRES W  DIS CAZ7
 KIMBE    P   1   2238  9.90                                                    
 BUTIA    P   1   2242 36.00                                                    
 LIHIR    P   1   2245 26.30                                                    
 MANU     P   1   2238 17.90                                                    

 2015  218 0444 34.0 L  -6.730 155.690 60.0       7 2.7 5.2L sotonPNG2015dkbn                   1
 STAT SP IPHASW D HRMM SECON CODA AMPLIT PERI AZIMU VELO AIN AR TRES W  DIS CAZ7
 BUIN     P   1    444 43.10                                                    
 ARAWA    P   1    444 47.70                                                    
 LASU     P   1    445 21.70                                                    
 LASU     S   1    445 30.20                                                    
 RABL     P   1    445 44.80                                                    
 LIHIR    P   1    445 45.40                                                    
 KAVI     P   1    446 15.40                                                    

 2015  219 0123 58.0 L  -5.540 150.140325.0       7 0.0 4.8L sotonPNG2015dlqk                   1
 STAT SP IPHASW D HRMM SECON CODA AMPLIT PERI AZIMU VELO AIN AR TRES W  DIS CAZ7
 KIMBE    P   1    122 26.80                                                    
 RABL     P   1    127 25.50                                                    
 BUTIA    P   1    125 37.00                                                    
 BUTIA    S   1    126 31.20                                                    
 LIHIR    P   1    123 35.40                                                    
 MANU     P   1    127  4.90                                                    
 ARAWA    P   1    123 14.70                                                    

 2015  219 0132 43.4 L  -5.530 150.130  5.0       7 0.0 4.9L sotonPNG2015dlqt                   1
 STAT SP IPHASW D HRMM SECON CODA AMPLIT PERI AZIMU VELO AIN AR TRES W  DIS CAZ7
 KIMBE    P   1    130 59.70                                                    
 KIMBE    S   1    131  2.50                                                    
 KAVI     P   1    137  6.00                                                    
 BUTIA    P   1    135  7.00                                                    
 BUTIA    S   1    135 13.30                                                    
 LIHIR    P   1    131 18.20                                                    
 MANU     P   1    135 45.00                                                    

 2015  219 0232 22.1 L  -5.160 150.210570.0       5 0.0 4.8L sotonPNG2015dlsr                   1
 STAT SP IPHASW D HRMM SECON CODA AMPLIT PERI AZIMU VELO AIN AR TRES W  DIS CAZ7
 KIMBE    P   1    231 59.80                                                    
 LIHIR    P   1    233 12.80                                                    
 BUTIA    P   1    236 36.00                                                    
 MANU     P   1    234 56.30                                                    
 ARAWA    P   1    240 15.90                                                    

 2015  219 0346 43.3 L  -5.620 150.130 20.0       5 0.0 4.9L sotonPNG2015dlvd                   1
 STAT SP IPHASW D HRMM SECON CODA AMPLIT PERI AZIMU VELO AIN AR TRES W  DIS CAZ7
 KIMBE    P   1    343 43.00                                                    
 BUTIA    P   1    347 38.00                                                    
 BUTIA    S   1    347 48.20                                                    
 LIHIR    P   1    350  6.30                                                    
 MANU     P   1    352  1.60                                                    

 2015  219 0520 59.2 L  -4.170 152.170 10.0       7 0.0 4.4L sotonPNG2015dlyg                   1
 STAT SP IPHASW D HRMM SECON CODA AMPLIT PERI AZIMU VELO AIN AR TRES W  DIS CAZ7
 RABL     P   1    520 11.10                                                    
 LIHIR    P   1    520 23.20                                                    
 LIHIR    S   1    520 24.70                                                    
 KIMBE    P   1    524 38.60                                                    
 ARAWA    P   1    526  1.10                                                    
 BUTIA    P   1    521 54.00                                                    
 BUTIA    S   1    522  0.30                                                    

 2015  219 0628 27.1 L  -8.510 151.090  3.0       6 0.0 4.8L sotonPNG2015dmam                   1
 STAT SP IPHASW D HRMM SECON CODA AMPLIT PERI AZIMU VELO AIN AR TRES W  DIS CAZ7
 BUTIA    P   1    625 16.00                                                    
 BUTIA    S   0    625 22.20                                                    
 KIMBE    P   1    633  6.70                                                    
 RABL     P   1    631 47.30                                                    
 LASU     P   1    630 33.80                                                    
 MANU     P   1    630 17.60                                                    

 2015  219 2127 26.2 L  -5.550 150.130  5.0       6 0.0 4.9L sotonPNG2015dned                   1
 STAT SP IPHASW D HRMM SECON CODA AMPLIT PERI AZIMU VELO AIN AR TRES W  DIS CAZ7
 KIMBE    P   1   2124  6.10                                                    
 BUTIA    P   1   2126 40.00                                                    
 LASU     P   1   2130 35.70                                                    
 LIHIR    P   1   2127 24.30                                                    
 MANU     P   1   2131 33.70                                                    
 ARAWA    P   1   2129 23.20                                                    

 2015  219 2147 10.8 L  -5.340 147.530415.0       7 1.0 5.3L sotonPNG2015dneu                   1
 STAT SP IPHASW D HRMM SECON CODA AMPLIT PERI AZIMU VELO AIN AR TRES W  DIS CAZ7
 KIMBE    P   1   2148 13.20                                                    
 MANU     P   1   2148 18.90                                                    
 BUTIA    P   1   2148 34.00                                                    
 BUTIA    S   0   2148 40.30                                                    
 RABL     P   1   2149  0.50                                                    
 LIHIR    P   1   2149 56.80                                                    
 ARAWA    P   1   2150  0.10                                                    

 2015  219 2148 42.5 L  -3.410 151.810  0.0       7 1.1 4.9L sotonPNG2015dnev                   1
 STAT SP IPHASW D HRMM SECON CODA AMPLIT PERI AZIMU VELO AIN AR TRES W  DIS CAZ7
 RABL     P   1   2149  0.50                                                    
 LIHIR    P   1   2149  1.40                                                    
 KIMBE    P   1   2149 29.40                                                    
 KIMBE    S   0   2149 31.80                                                    
 ARAWA    P   1   2150  0.10                                                    
 BUTIA    P   1   2150  1.00                                                    
 BUTIA    S   0   2150  7.30                                                    

 2015  219 2156 13.3 L  -4.310 153.110 10.0       7 0.0 4.0L sotonPNG2015dnfc                   1
 STAT SP IPHASW D HRMM SECON CODA AMPLIT PERI AZIMU VELO AIN AR TRES W  DIS CAZ7
 LASU     P   1   2154 38.60                                                    
 RABL     P   1   2158  5.60                                                    
 LIHIR    P   1   22 0 26.20                                                    
 ARAWA    P   1   2156 37.30                                                    
 KIMBE    P   1   2156  3.30                                                    
 KIMBE    S   1   2156  5.20                                                    
 BUTIA    P   1   2157 42.60                                                    

 2015  220 0001 37.0 L  -6.760 155.680  5.0       6 0.0 4.2L sotonPNG2015dnjf                   1
 STAT SP IPHASW D HRMM SECON CODA AMPLIT PERI AZIMU VELO AIN AR TRES W  DIS CAZ7
 BUIN     P   1    0 0 39.10                                                    
 ARAWA    P   1    0 4 24.50                                                    
 RABL     P   1    0 0 41.90                                                    
 RABL     S   1    0 0 43.90                                                    
 LIHIR    P   1    0 2 13.20                                                    
 KIMBE    P   1    0 2 46.50                                                    

 2015  220 0139 17.2 L  -3.950 153.020200.0       4 0.2 3.8L sotonPNG2015dnml                   1
 STAT SP IPHASW D HRMM SECON CODA AMPLIT PERI AZIMU VELO AIN AR TRES W  DIS CAZ7
 RABL     P   1    139 47.10                                                    
 LIHIR    P   1    139 47.60                                                    
 KAVI     P   1    140  3.90                                                    
 ARAWA    P   1    140 13.00                                                    

 2015  220 0404 59.7 L  -2.510 151.020  4.0       6 2.6 4.4L sotonPNG2015dnrg                   1
 STAT SP IPHASW D HRMM SECON CODA AMPLIT PERI AZIMU VELO AIN AR TRES W  DIS CAZ7
 KAVI     P   1    4 5  6.10                                                    
 KAVI     S   1    4 5  7.70                                                    
 LIHIR    P   1    4 5 28.70                                                    
 LIHIR    S   0    4 5 30.10                                                    
 KIMBE    P   1    4 5 55.90                                                    
 MANU     P   1    4 6  4.70                                                    

 2015  220 0432 33.8 L  -8.110 150.990291.0       9 2.2 5.0L sotonPNG2015dnsd                   1
 STAT SP IPHASW D HRMM SECON CODA AMPLIT PERI AZIMU VELO AIN AR TRES W  DIS CAZ7
 BUTIA    P   1    433 11.90                                                    
 BUTIA    S   0    433 14.20                                                    
 KIMBE    P   1    433 27.90                                                    
 KIMBE    S   0    433 44.50                                                    
 RABL     P   1    433 33.00                                                    
 RABL     S   0    433 35.90                                                    
 LASU     P   1    434  4.70                                                    
 ARAWA    P   1    433 55.80                                                    
 LIHIR    P   1    434 14.30                                                    

 2015  221 0036  9.8 L  -4.190 152.160 10.0       8 0.0 3.8L sotonPNG2015dpfw                   1
 STAT SP IPHASW D HRMM SECON CODA AMPLIT PERI AZIMU VELO AIN AR TRES W  DIS CAZ7
 RABL     P   1    033 50.60                                                    
 RABL     S   1    033 52.70                                                    
 LASU     P   1    038 41.80                                                    
 LIHIR    P   1    036 36.10                                                    
 LIHIR    S   0    037  8.50                                                    
 KAVI     P   1    034 48.80                                                    
 KIMBE    P   1    037 10.90                                                    
 MANU     P   1    035 22.30                                                    

 2015  223 0511 33.3 L  -1.790 154.200  5.0       4 0.1 5.0L sotonPNG2015dtfy                   1
 STAT SP IPHASW D HRMM SECON CODA AMPLIT PERI AZIMU VELO AIN AR TRES W  DIS CAZ7
 LASU     P   1    512 17.10                                                    
 RABL     P   1    512 23.10                                                    
 KAVI     P   1    512 27.60                                                    
 ARAWA    P   1    512 43.30                                                    

 2015  223 0637 17.3 L  -4.690 152.480325.0      11 0.0 4.8L sotonPNG2015dtit                   1
 STAT SP IPHASW D HRMM SECON CODA AMPLIT PERI AZIMU VELO AIN AR TRES W  DIS CAZ7
 RABL     P   1    635 46.30                                                    
 LASU     P   1    639 29.80                                                    
 LASU     S   1    639 35.50                                                    
 LIHIR    P   1    640  3.20                                                    
 KIMBE    P   1    640 12.10                                                    
 ARAWA    P   1    638 13.20                                                    
 ARAWA    S   1    638 22.00                                                    
 BUIN     P   1    638 14.80                                                    
 BUTIA    P   1    638 49.50                                                    
 MANU     P   1    637 16.10                                                    
 MANU     S   1    637 19.70                                                    

 2015  223 0905 33.5 L  -6.020 152.340 36.0      13 1.8 5.0L sotonPNG2015dtnr                   1
 STAT SP IPHASW D HRMM SECON CODA AMPLIT PERI AZIMU VELO AIN AR TRES W  DIS CAZ7
 RABL     P   1    9 6  3.50                                                    
 RABL     S   0    9 6  9.10                                                    
 LASU     P   1    9 6  2.20                                                    
 LASU     S   1    9 6 24.10                                                    
 KIMBE    P   1    9 6  7.80                                                    
 LIHIR    P   1    9 6 22.50                                                    
 LIHIR    S   0    9 6 25.40                                                    
 ARAWA    P   1    9 6 21.20                                                    
 ARAWA    S   1    9 6 24.90                                                    
 BUIN     P   1    9 6 25.70                                                    
 BUIN     S   0    9 6 57.60                                                    
 MANU     P   1    9 6 29.90                                                    
 MANU     S   0    9 6 37.40                                                    

 2015  223 2120  5.5 L  -5.560 150.110  5.0       7 0.0 4.3L sotonPNG2015dulx                   1
 STAT SP IPHASW D HRMM SECON CODA AMPLIT PERI AZIMU VELO AIN AR TRES W  DIS CAZ7
 KIMBE    P   1   2118 23.40                                                    
 RABL     P   1   2124 30.20                                                    
 BUTIA    P   1   2120 43.00                                                    
 BUTIA    S   1   2120 53.20                                                    
 LASU     P   1   2124 28.70                                                    
 LIHIR    P   1   2120 12.10                                                    
 LIHIR    S   1   2120 13.50                                                    

 2015  226 1659 35.5 L  -5.330 151.550  8.0       5 0.2 4.0L sotonPNG2015dzpu                   1
 STAT SP IPHASW D HRMM SECON CODA AMPLIT PERI AZIMU VELO AIN AR TRES W  DIS CAZ7
 RABL     P   1   1659 59.50                                                    
 KIMBE    P   1   17 0  1.20                                                    
 KIMBE    S   1   17 0 21.70                                                    
 LASU     P   1   17 0  7.10                                                    
 KAVI     P   1   17 0 20.60                                                    

