 2015  404 0520 23.1 L  -5.050 153.170140.0       5 1.1 4.0L sotonPNG2015goij                   1
 STAT SP IPHASW D HRMM SECON CODA AMPLIT PERI AZIMU VELO AIN AR TRES W  DIS CAZ7
 LASU     P   1    520 46.00                                                    
 LASU     S   1    521  2.30                                                    
 RABL     P   1    520 50.00                                                    
 LIHIR    P   1    521  2.90                                                    
 ARAWA    P   1    521  6.50                                                    

 2015  404 1121 42.8 L  -4.890 153.330 17.0       5 2.4 4.2L sotonPNG2015gouh                   1
 STAT SP IPHASW D HRMM SECON CODA AMPLIT PERI AZIMU VELO AIN AR TRES W  DIS CAZ7
 LASU     P   1   1121 59.80                                                    
 LASU     S   1   1122  1.60                                                    
 RABL     P   1   1122  6.20                                                    
 LIHIR    P   1   1122 18.90                                                    
 ARAWA    P   1   1122 22.70                                                    

 2015  404 1211 26.6 L  -5.450 152.440147.0       8 1.4 4.9L sotonPNG2015govx                   1
 STAT SP IPHASW D HRMM SECON CODA AMPLIT PERI AZIMU VELO AIN AR TRES W  DIS CAZ7
 RABL     P   1   1211 54.60                                                    
 RABL     S   0   1211 56.70                                                    
 LASU     P   1   1211 50.90                                                    
 LASU     S   1   1212 18.10                                                    
 LIHIR    P   1   1212  8.40                                                    
 LIHIR    S   0   1212 13.40                                                    
 ARAWA    P   1   1212 17.70                                                    
 ARAWA    S   0   1212 43.30                                                    

 2015  404 1635 48.3 L  -5.050 152.690 10.0       9 1.6 4.1L sotonPNG2015gpeq                   1
 STAT SP IPHASW D HRMM SECON CODA AMPLIT PERI AZIMU VELO AIN AR TRES W  DIS CAZ7
 LASU     P   1   1636  7.10                                                    
 LASU     S   0   1636 30.10                                                    
 RABL     P   1   1636  9.20                                                    
 LIHIR    P   1   1636 24.20                                                    
 LIHIR    S   1   1636 55.30                                                    
 ARAWA    P   1   1636 38.60                                                    
 ARAWA    S   0   1636 41.20                                                    
 KAVI     P   1   1636 24.80                                                    
 KAVI     S   0   1636 27.50                                                    

 2015  405 0835 34.9 L  -4.750 153.120111.0      12 2.4 5.1L sotonPNG2015gqkh                   1
 STAT SP IPHASW D HRMM SECON CODA AMPLIT PERI AZIMU VELO AIN AR TRES W  DIS CAZ7
 LASU     P   1    835 56.00                                                    
 LASU     S   0    836 17.50                                                    
 RABL     P   1    835 57.40                                                    
 RABL     S   0    835 59.40                                                    
 LIHIR    P   1    836 11.80                                                    
 LIHIR    S   1    836 27.10                                                    
 ARAWA    P   1    836 20.40                                                    
 ARAWA    S   0    836 27.30                                                    
 KAVI     P   1    836 27.40                                                    
 BUIN     P   1    836 22.50                                                    
 BUIN     S   0    836 40.10                                                    
 MANU     P   1    837  9.90                                                    

 2015  405 0856  4.1 L  -5.280 152.530150.0       6 2.0 3.7L sotonPNG2015gqkz                   1
 STAT SP IPHASW D HRMM SECON CODA AMPLIT PERI AZIMU VELO AIN AR TRES W  DIS CAZ7
 LASU     P   1    856 28.70                                                    
 LASU     S   0    856 48.10                                                    
 RABL     P   1    856 30.10                                                    
 LIHIR    P   1    856 47.20                                                    
 LIHIR    S   0    856 50.40                                                    
 ARAWA    P   1    856 54.70                                                    

 2015  405 1714 48.2 L  -4.780 153.860 40.0       4 1.7 4.0L sotonPNG2015grbl                   1
 STAT SP IPHASW D HRMM SECON CODA AMPLIT PERI AZIMU VELO AIN AR TRES W  DIS CAZ7
 LASU     P   1   1715  7.80                                                    
 LASU     S   1   1715 15.40                                                    
 RABL     P   1   1715 18.40                                                    
 ARAWA    P   1   1715 22.40                                                    

 2015  405 2051 33.5 L  -6.060 153.780 35.0       7 2.1 5.9L sotonPNG2015grio                   1
 STAT SP IPHASW D HRMM SECON CODA AMPLIT PERI AZIMU VELO AIN AR TRES W  DIS CAZ7
 LASU     P   1   2052  6.00                                                    
 BUIN     P   1   2052  7.50                                                    
 BUIN     S   1   2052 29.30                                                    
 RABL     P   1   2052  8.50                                                    
 LIHIR    P   1   2052 22.60                                                    
 KAVI     P   1   2052 38.50                                                    
 MANU     P   1   2053 19.70                                                    

 2015  405 2121 46.7 L  -6.430 152.610 20.0       7 1.1 4.7L sotonPNG2015grjo                   1
 STAT SP IPHASW D HRMM SECON CODA AMPLIT PERI AZIMU VELO AIN AR TRES W  DIS CAZ7
 LASU     P   1   2122 21.70                                                    
 LASU     S   0   2122 47.30                                                    
 RABL     P   1   2122 22.30                                                    
 RABL     S   0   2122 28.80                                                    
 ARAWA    P   1   2122 32.20                                                    
 ARAWA    S   0   2122 55.40                                                    
 LIHIR    P   1   2122 42.40                                                    

 2015  406 0003  0.3 L  -4.490 152.580  8.0       5 2.0 4.0L sotonPNG2015grox                   1
 STAT SP IPHASW D HRMM SECON CODA AMPLIT PERI AZIMU VELO AIN AR TRES W  DIS CAZ7
 RABL     P   1    0 3 13.00                                                    
 RABL     S   1    0 3 16.00                                                    
 LASU     P   1    0 3 11.00                                                    
 LIHIR    P   1    0 3 28.10                                                    
 BUIN     P   1    0 3 59.00                                                    

 2015  406 0058 28.1 L  -4.880 153.850  5.0       4 1.0 3.6L sotonPNG2015grqs                   1
 STAT SP IPHASW D HRMM SECON CODA AMPLIT PERI AZIMU VELO AIN AR TRES W  DIS CAZ7
 LASU     P   1    058 44.40                                                    
 RABL     P   1    059  0.20                                                    
 ARAWA    P   1    059  4.10                                                    
 LIHIR    P   1    059  6.00                                                    

 2015  406 0146 26.3 L  -4.790 152.970  9.0       5 0.9 3.7L sotonPNG2015grsh                   1
 STAT SP IPHASW D HRMM SECON CODA AMPLIT PERI AZIMU VELO AIN AR TRES W  DIS CAZ7
 LASU     P   1    146 38.10                                                    
 LASU     S   1    146 44.60                                                    
 RABL     P   1    146 44.10                                                    
 LIHIR    P   1    146 58.10                                                    
 ARAWA    P   1    147 12.80                                                    

 2015  406 0438 26.6 L  -4.290 152.650  5.0       5 2.6 3.7L sotonPNG2015grxz                   1
 STAT SP IPHASW D HRMM SECON CODA AMPLIT PERI AZIMU VELO AIN AR TRES W  DIS CAZ7
 LASU     P   1    438 34.70                                                    
 LASU     S   0    438 55.30                                                    
 RABL     P   1    438 36.30                                                    
 LIHIR    P   1    438 50.40                                                    
 ARAWA    P   1    439 27.60                                                    

 2015  406 1045 29.8 L  -5.360 153.420 35.0       5 1.1 4.3L sotonPNG2015gskc                   1
 STAT SP IPHASW D HRMM SECON CODA AMPLIT PERI AZIMU VELO AIN AR TRES W  DIS CAZ7
 LASU     P   1   1045 46.80                                                    
 LASU     S   1   1046  4.60                                                    
 RABL     P   1   1045 57.30                                                    
 ARAWA    P   1   1046  5.70                                                    
 LIHIR    P   1   1046 10.20                                                    

 2015  406 1309 42.2 L  -5.250 153.150  5.0       4 0.2 3.9L sotonPNG2015gsov                   1
 STAT SP IPHASW D HRMM SECON CODA AMPLIT PERI AZIMU VELO AIN AR TRES W  DIS CAZ7
 LASU     P   1   1310  0.40                                                    
 RABL     P   1   1310  8.20                                                    
 LIHIR    P   1   1310 20.20                                                    
 ARAWA    P   1   1310 24.20                                                    

 2015  406 1924 10.0 L  -5.040 153.590  5.0       6 2.2 3.9L sotonPNG2015gtbf                   1
 STAT SP IPHASW D HRMM SECON CODA AMPLIT PERI AZIMU VELO AIN AR TRES W  DIS CAZ7
 LASU     P   1   1924 24.00                                                    
 LASU     S   0   1924 50.90                                                    
 RABL     P   1   1924 39.70                                                    
 RABL     S   0   1924 47.90                                                    
 LIHIR    P   1   1924 51.70                                                    
 ARAWA    P   1   1924 47.20                                                    

 2015  406 2224 38.8 L  -6.370 152.380183.0       6 1.4 4.7L sotonPNG2015gthd                   1
 STAT SP IPHASW D HRMM SECON CODA AMPLIT PERI AZIMU VELO AIN AR TRES W  DIS CAZ7
 RABL     P   1   2225 20.10                                                    
 LASU     P   1   2225 16.90                                                    
 LASU     S   0   2225 19.10                                                    
 ARAWA    P   1   2225 30.20                                                    
 ARAWA    S   1   2226 12.80                                                    
 LIHIR    P   1   2225 34.80                                                    

 2015  407 1637 31.8 L  -5.900 151.130 78.0       8 2.2 5.1L sotonPNG2015gurf                   1
 STAT SP IPHASW D HRMM SECON CODA AMPLIT PERI AZIMU VELO AIN AR TRES W  DIS CAZ7
 RABL     P   1   1638  7.10                                                    
 RABL     S   0   1638 18.00                                                    
 LASU     P   1   1638  7.00                                                    
 BUTIA    P   1   1638 12.00                                                    
 LIHIR    P   1   1638 20.80                                                    
 LIHIR    S   0   1638 39.40                                                    
 ARAWA    P   1   1638 43.00                                                    
 BUIN     P   1   1639 27.10                                                    

 2015  408 1044 29.7 L  -4.340 152.660  5.0       4 1.7 4.1L sotonPNG2015gwbb                   1
 STAT SP IPHASW D HRMM SECON CODA AMPLIT PERI AZIMU VELO AIN AR TRES W  DIS CAZ7
 LASU     P   1   1044 38.10                                                    
 RABL     P   1   1044 39.80                                                    
 LIHIR    P   1   1044 54.90                                                    
 ARAWA    P   1   1045 26.30                                                    

 2015  409 1130 47.9 L  -4.630 152.660 10.0       5 0.8 4.2L sotonPNG2015gxyc                   1
 STAT SP IPHASW D HRMM SECON CODA AMPLIT PERI AZIMU VELO AIN AR TRES W  DIS CAZ7
 LASU     P   1   1131  1.40                                                    
 RABL     P   1   1131  2.40                                                    
 LIHIR    P   1   1131 18.50                                                    
 KAVI     P   1   1131 35.80                                                    
 ARAWA    P   1   1131 41.90                                                    

 2015  410 0824 38.0 L  -5.760 153.030 33.0       5 0.1 5.0L sotonPNG2015gznl                   1
 STAT SP IPHASW D HRMM SECON CODA AMPLIT PERI AZIMU VELO AIN AR TRES W  DIS CAZ7
 LASU     P   1    825  2.20                                                    
 RABL     P   1    825  6.80                                                    
 ARAWA    P   1    825 17.60                                                    
 LIHIR    P   1    825 19.90                                                    
 KAVI     P   1    825 37.40                                                    

 2015  410 1556  5.7 L  -4.720 153.150 48.0       7 0.1 4.7L sotonPNG2015haci                   1
 STAT SP IPHASW D HRMM SECON CODA AMPLIT PERI AZIMU VELO AIN AR TRES W  DIS CAZ7
 LASU     P   1   1556 16.20                                                    
 LASU     S   1   1556 25.10                                                    
 RABL     P   1   1556 25.60                                                    
 LIHIR    P   1   1556 33.90                                                    
 LIHIR    S   1   1556 56.50                                                    
 ARAWA    P   1   1556 49.00                                                    
 KAVI     P   1   1556 55.90                                                    

 2015  410 1822 35.3 L  -3.440 152.580 16.0       5 0.1 4.2L sotonPNG2015hahe                   1
 STAT SP IPHASW D HRMM SECON CODA AMPLIT PERI AZIMU VELO AIN AR TRES W  DIS CAZ7
 LIHIR    P   1   1822 44.50                                                    
 LIHIR    S   1   1822 50.80                                                    
 RABL     P   1   1822 51.60                                                    
 LASU     P   1   1822 53.90                                                    
 KAVI     P   1   1823  7.80                                                    

 2015  412 1405 17.5 L  -5.400 152.930117.0       8 1.5 4.3L sotonPNG2015hdps                   1
 STAT SP IPHASW D HRMM SECON CODA AMPLIT PERI AZIMU VELO AIN AR TRES W  DIS CAZ7
 LASU     P   1   14 5 39.10                                                    
 LASU     S   1   14 5 58.60                                                    
 RABL     P   1   14 5 43.30                                                    
 RABL     S   0   14 5 46.40                                                    
 LIHIR    P   1   14 5 58.30                                                    
 LIHIR    S   1   14 6 30.30                                                    
 ARAWA    P   1   14 6  1.40                                                    
 ARAWA    S   0   14 6 27.70                                                    

 2015  412 1445 45.3 L  -4.410 153.430 22.0       7 0.3 4.1L sotonPNG2015hdra                   1
 STAT SP IPHASW D HRMM SECON CODA AMPLIT PERI AZIMU VELO AIN AR TRES W  DIS CAZ7
 LASU     P   1   1445 53.70                                                    
 LASU     S   1   1445 59.50                                                    
 RABL     P   1   1446  8.10                                                    
 LIHIR    P   1   1446 12.00                                                    
 ARAWA    P   1   1446 29.10                                                    
 ARAWA    S   1   1447  2.60                                                    
 KAVI     P   1   1446 36.10                                                    

 2015  412 1609  9.9 L  -4.900 153.180 63.0       5 0.3 3.4L sotonPNG2015hdtu                   1
 STAT SP IPHASW D HRMM SECON CODA AMPLIT PERI AZIMU VELO AIN AR TRES W  DIS CAZ7
 LASU     P   1   16 9 23.40                                                    
 RABL     P   1   16 9 31.00                                                    
 RABL     S   1   16 9 49.50                                                    
 LIHIR    P   1   16 9 41.20                                                    
 ARAWA    P   1   16 9 51.80                                                    

 2015  412 1849 28.2 L  -4.310 152.710  5.0       5 2.6 3.6L sotonPNG2015hdzb                   1
 STAT SP IPHASW D HRMM SECON CODA AMPLIT PERI AZIMU VELO AIN AR TRES W  DIS CAZ7
 LASU     P   1   1849 35.40                                                    
 LASU     S   0   1849 55.40                                                    
 RABL     P   1   1849 38.60                                                    
 LIHIR    P   1   1849 52.50                                                    
 ARAWA    P   1   1850 28.10                                                    

 2015  413 0326 30.7 L  -5.140 153.480178.0       9 1.7 4.9L sotonPNG2015heqd                   1
 STAT SP IPHASW D HRMM SECON CODA AMPLIT PERI AZIMU VELO AIN AR TRES W  DIS CAZ7
 LASU     P   1    326 58.60                                                    
 LASU     S   1    327 21.30                                                    
 RABL     P   1    327  3.50                                                    
 RABL     S   0    327  7.70                                                    
 LIHIR    P   1    327 16.70                                                    
 LIHIR    S   0    327 24.90                                                    
 BUIN     P   1    327 16.80                                                    
 BUIN     S   0    327 30.80                                                    
 KAVI     P   1    327 34.60                                                    

 2015  413 0730 36.3 L  -4.540 153.510 40.0       5 0.3 4.1L sotonPNG2015heye                   1
 STAT SP IPHASW D HRMM SECON CODA AMPLIT PERI AZIMU VELO AIN AR TRES W  DIS CAZ7
 LASU     P   1    730 47.70                                                    
 LASU     S   1    730 55.40                                                    
 RABL     P   1    730 59.80                                                    
 ARAWA    P   1    731 16.60                                                    
 ARAWA    S   1    731 49.30                                                    

