 2015  113 0730 19.9 L  -5.270 151.190112.0      10 0.6 4.9L sotonPNG2015awmx                   1
 STAT SP IPHASW D HRMM SECON CODA AMPLIT PERI AZIMU VELO AIN AR TRES W  DIS CAZ7
 KIMBE    P   1    730 43.00                                                    
 RABL     P   1    730 47.30                                                    
 LASU     P   1    730 56.80                                                    
 LASU     S   1    731 23.60                                                    
 LIHIR    P   1    730 59.70                                                    
 LIHIR    S   1    731 34.70                                                    
 KAVI     P   1    731  3.20                                                    
 ARAWA    P   1    731 26.40                                                    
 BUIN     P   1    731 17.70                                                    
 BUIN     S   0    731 30.40                                                    

 2015  113 2004 12.5 L  -2.630 148.410505.0       6 1.6 4.9L sotonPNG2015axlt                   1
 STAT SP IPHASW D HRMM SECON CODA AMPLIT PERI AZIMU VELO AIN AR TRES W  DIS CAZ7
 MANU     P   1   20 5 16.70                                                    
 MANU     S   0   20 5 19.30                                                    
 KAVI     P   1   20 5 18.70                                                    
 KIMBE    P   1   20 5 28.20                                                    
 RABL     P   1   20 5 19.30                                                    
 LIHIR    P   1   20 5 32.20                                                    

 2015  114 0940 28.9 L  -4.390 153.220 47.0       6 1.1 3.9L sotonPNG2015aymr                   1
 STAT SP IPHASW D HRMM SECON CODA AMPLIT PERI AZIMU VELO AIN AR TRES W  DIS CAZ7
 LASU     P   1    940 34.80                                                    
 LASU     S   1    940 44.50                                                    
 RABL     P   1    940 45.60                                                    
 RABL     S   1    941  4.50                                                    
 LIHIR    P   1    940 53.80                                                    
 ARAWA    P   1    941 14.10                                                    

 2015  115 0205 31.1 L  -5.560 150.140 10.0       7 0.0 4.6L sotonPNG2015azte                   1
 STAT SP IPHASW D HRMM SECON CODA AMPLIT PERI AZIMU VELO AIN AR TRES W  DIS CAZ7
 KIMBE    P   1    2 1 59.90                                                    
 RABL     P   1    2 8 20.20                                                    
 BUTIA    P   1    2 5 45.00                                                    
 BUTIA    S   1    2 5 51.30                                                    
 LIHIR    P   1    2 7 39.40                                                    
 MANU     P   1    210 39.90                                                    
 MANU     S   1    210 41.40                                                    

 2015  115 0654 40.5 L  -4.740 151.050 36.0       7 2.5 4.3L sotonPNG2015bacs                   1
 STAT SP IPHASW D HRMM SECON CODA AMPLIT PERI AZIMU VELO AIN AR TRES W  DIS CAZ7
 KIMBE    P   1    655  3.80                                                    
 KIMBE    S   1    655 13.50                                                    
 RABL     P   1    655  2.20                                                    
 RABL     S   1    655 16.70                                                    
 LASU     P   1    655 10.60                                                    
 LIHIR    P   1    655 17.60                                                    
 BUTIA    P   1    655 39.00                                                    

 2015  116 1715 45.0 L  -4.830 151.720163.0      13 0.8 4.7L sotonPNG2015bcss                   1
 STAT SP IPHASW D HRMM SECON CODA AMPLIT PERI AZIMU VELO AIN AR TRES W  DIS CAZ7
 RABL     P   1   1716 11.00                                                    
 LASU     P   1   1716 16.90                                                    
 LASU     S   1   1716 40.40                                                    
 KIMBE    P   1   1716 18.90                                                    
 KIMBE    S   0   1716 21.80                                                    
 LIHIR    P   1   1716 21.50                                                    
 LIHIR    S   1   1716 40.60                                                    
 KAVI     P   1   1716 27.30                                                    
 KAVI     S   0   1716 29.60                                                    
 ARAWA    P   1   1716 48.30                                                    
 BUIN     P   1   1716 52.30                                                    
 BUIN     S   1   1717 44.30                                                    
 MANU     P   1   1716 57.30                                                    

 2015  118 2125 46.3 L  -5.540 149.720568.0       6 0.0 4.8L sotonPNG2015bgrz                   1
 STAT SP IPHASW D HRMM SECON CODA AMPLIT PERI AZIMU VELO AIN AR TRES W  DIS CAZ7
 KIMBE    P   1   2124 47.80                                                    
 BUTIA    P   1   2128 39.00                                                    
 BUTIA    S   0   2128 45.20                                                    
 LIHIR    P   1   2129  9.00                                                    
 MANU     P   1   2127 59.40                                                    
 ARAWA    P   1   2129 24.30                                                    

 2015  120 1207 13.8 L  -6.100 154.890127.0      12 1.7 5.5L sotonPNG2015bjqo                   1
 STAT SP IPHASW D HRMM SECON CODA AMPLIT PERI AZIMU VELO AIN AR TRES W  DIS CAZ7
 ARAWA    P   1   12 7 34.60                                                    
 ARAWA    S   1   12 7 49.50                                                    
 BUIN     P   1   12 7 38.20                                                    
 BUIN     S   0   12 7 39.50                                                    
 LASU     P   1   12 7 55.90                                                    
 LASU     S   1   12 8  2.20                                                    
 RABL     P   1   12 8  6.30                                                    
 RABL     S   0   12 8  9.70                                                    
 LIHIR    P   1   12 8 13.50                                                    
 LIHIR    S   0   12 8 19.80                                                    
 KIMBE    P   1   12 8 22.30                                                    
 KAVI     P   1   12 9 50.80                                                    

 2015  120 1448 36.2 L  -6.300 154.860170.0      11 2.3 4.9L sotonPNG2015bjvw                   1
 STAT SP IPHASW D HRMM SECON CODA AMPLIT PERI AZIMU VELO AIN AR TRES W  DIS CAZ7
 ARAWA    P   1   1449  0.30                                                    
 ARAWA    S   1   1449 24.20                                                    
 BUIN     P   1   1449  4.00                                                    
 BUIN     S   1   1449 23.20                                                    
 LASU     P   1   1449 21.60                                                    
 LASU     S   1   1449 51.10                                                    
 RABL     P   1   1449 34.60                                                    
 RABL     S   1   1450 15.50                                                    
 LIHIR    P   1   1449 39.80                                                    
 KIMBE    P   1   1449 31.50                                                    
 KIMBE    S   0   1449 47.90                                                    

 2015  123 0447 57.6 L  -3.580 152.110  8.0       7 2.0 4.3L sotonPNG2015booo                   1
 STAT SP IPHASW D HRMM SECON CODA AMPLIT PERI AZIMU VELO AIN AR TRES W  DIS CAZ7
 RABL     P   1    448  7.70                                                    
 RABL     S   1    448 19.50                                                    
 LIHIR    P   1    448 15.50                                                    
 LIHIR    S   1    448 21.10                                                    
 KAVI     P   1    448 25.30                                                    
 KIMBE    P   1    448 43.80                                                    
 ARAWA    P   1    449  5.90                                                    

 2015  125 0619 38.5 L  -5.490 152.180 59.0       7 2.6 4.2L sotonPNG2015bsio                   1
 STAT SP IPHASW D HRMM SECON CODA AMPLIT PERI AZIMU VELO AIN AR TRES W  DIS CAZ7
 RABL     P   1    620  6.90                                                    
 RABL     S   1    620 19.30                                                    
 LASU     P   1    620  7.00                                                    
 LASU     S   1    620 20.20                                                    
 KIMBE    P   1    620 10.60                                                    
 LIHIR    P   1    620 11.90                                                    
 KAVI     P   1    620 29.50                                                    

 2015  126 2215  2.2 L  -5.430 148.100160.0       5 0.0 5.1L sotonPNG2015bvjp                   1
 STAT SP IPHASW D HRMM SECON CODA AMPLIT PERI AZIMU VELO AIN AR TRES W  DIS CAZ7
 KIMBE    P   1   2213 15.10                                                    
 RABL     P   1   2220 51.40                                                    
 BUTIA    P   1   2217 41.00                                                    
 BUTIA    S   1   2217 51.20                                                    
 LIHIR    P   1   2214  9.80                                                    

 2015  128 0223 47.6 L  -3.700 150.810198.0       5 2.5 4.3L sotonPNG2015bxni                   1
 STAT SP IPHASW D HRMM SECON CODA AMPLIT PERI AZIMU VELO AIN AR TRES W  DIS CAZ7
 RABL     P   1    224 30.20                                                    
 RABL     S   1    224 47.90                                                    
 LIHIR    P   1    224 25.60                                                    
 KIMBE    P   1    224 26.00                                                    
 LASU     P   1    224 28.50                                                    

 2015  128 0248 20.8 L  -7.300 152.240 20.0       7 2.7 4.8L sotonPNG2015bxod                   1
 STAT SP IPHASW D HRMM SECON CODA AMPLIT PERI AZIMU VELO AIN AR TRES W  DIS CAZ7
 KIMBE    P   1    249  3.60                                                    
 KIMBE    S   0    249 24.10                                                    
 RABL     P   1    249 13.70                                                    
 LASU     P   1    249  6.20                                                    
 LIHIR    P   1    249 14.10                                                    
 LIHIR    S   0    249 17.40                                                    
 KAVI     P   1    249 31.40                                                    

 2015  128 1549  6.8 L  -4.590 154.040229.0       6 1.5 4.0L sotonPNG2015bynw                   1
 STAT SP IPHASW D HRMM SECON CODA AMPLIT PERI AZIMU VELO AIN AR TRES W  DIS CAZ7
 LASU     P   1   1549 45.50                                                    
 LASU     S   1   1550  5.60                                                    
 RABL     P   1   1549 50.70                                                    
 LIHIR    P   1   1549 49.00                                                    
 ARAWA    P   1   1549 50.20                                                    
 KAVI     P   1   1550  8.70                                                    

 2015  129 0409 30.6 L  -7.880 150.890170.0       8 2.6 4.8L sotonPNG2015bzmh                   1
 STAT SP IPHASW D HRMM SECON CODA AMPLIT PERI AZIMU VELO AIN AR TRES W  DIS CAZ7
 BUTIA    P   1    4 9 56.00                                                    
 BUTIA    S   0    4 9 57.30                                                    
 KIMBE    P   1    410 13.20                                                    
 RABL     P   1    410  3.40                                                    
 RABL     S   0    410  9.20                                                    
 LASU     P   1    410 36.60                                                    
 ARAWA    P   1    410 50.00                                                    
 ARAWA    S   0    410 53.60                                                    

 2015  131 2012 33.2 L  -5.700 151.330 35.0       9 1.0 5.0L sotonPNG2015cejc                   1
 STAT SP IPHASW D HRMM SECON CODA AMPLIT PERI AZIMU VELO AIN AR TRES W  DIS CAZ7
 KIMBE    P   1   2012 54.10                                                    
 KIMBE    S   1   2013 10.40                                                    
 RABL     P   1   2013  3.00                                                    
 RABL     S   1   2013 22.80                                                    
 LASU     P   1   2013  8.30                                                    
 LASU     S   1   2013 32.00                                                    
 LIHIR    P   1   2013 19.90                                                    
 LIHIR    S   1   2013 52.00                                                    
 ARAWA    P   1   2013 35.10                                                    

 2015  201 0436 34.2 L  -5.620 151.680 36.0       8 0.5 5.5L sotonPNG2015cezs                   1
 STAT SP IPHASW D HRMM SECON CODA AMPLIT PERI AZIMU VELO AIN AR TRES W  DIS CAZ7
 RABL     P   1    436 58.50                                                    
 KIMBE    P   1    436 59.80                                                    
 LASU     P   1    437  5.60                                                    
 LIHIR    P   1    437 15.50                                                    
 KAVI     P   1    437 22.40                                                    
 ARAWA    P   1    437 34.60                                                    
 ARAWA    S   1    438 18.00                                                    
 MANU     P   1    437 58.80                                                    

 2015  201 0446 36.5 L  -5.260 150.730200.0       7 0.6 4.7L sotonPNG2015cfab                   1
 STAT SP IPHASW D HRMM SECON CODA AMPLIT PERI AZIMU VELO AIN AR TRES W  DIS CAZ7
 KIMBE    P   1    447  5.40                                                    
 KIMBE    S   0    447  6.80                                                    
 RABL     P   1    447 13.30                                                    
 LASU     P   1    447 20.60                                                    
 LASU     S   0    447 22.70                                                    
 LIHIR    P   1    447 26.40                                                    
 ARAWA    P   1    448 32.70                                                    

 2015  202 0826 19.8 L  -3.000 152.610356.0       7 0.3 4.7L sotonPNG2015chcu                   1
 STAT SP IPHASW D HRMM SECON CODA AMPLIT PERI AZIMU VELO AIN AR TRES W  DIS CAZ7
 LIHIR    P   1    827  4.40                                                    
 LIHIR    S   1    827 40.80                                                    
 KAVI     P   1    827 11.90                                                    
 KAVI     S   0    827 13.50                                                    
 KIMBE    P   1    827 26.10                                                    
 ARAWA    P   1    827 35.30                                                    
 ARAWA    S   1    827 42.50                                                    

 2015  203 2159 16.5 L  -3.020 152.620  8.0       6 0.0 4.7L sotonPNG2015cjzd                   1
 STAT SP IPHASW D HRMM SECON CODA AMPLIT PERI AZIMU VELO AIN AR TRES W  DIS CAZ7
 LIHIR    P   1   2157 38.40                                                    
 LIHIR    S   1   2157 39.90                                                    
 KIMBE    P   1   22 2 12.50                                                    
 KIMBE    S   1   22 2 25.70                                                    
 ARAWA    P   1   22 2  3.40                                                    
 BUIN     P   1   22 2 13.80                                                    

 2015  207 0159 20.6 L  -7.020 152.810  5.0       5 0.9 5.0L sotonPNG2015cpto                   1
 STAT SP IPHASW D HRMM SECON CODA AMPLIT PERI AZIMU VELO AIN AR TRES W  DIS CAZ7
 LASU     P   1    2 0  4.50                                                    
 LASU     S   0    2 0 13.60                                                    
 BUIN     P   1    2 0  6.50                                                    
 RABL     P   1    2 0  6.30                                                    
 LIHIR    P   1    2 0 26.80                                                    

 2015  207 1035 53.7 L  -4.910 154.240 18.0       7 1.6 4.3L sotonPNG2015cqkp                   1
 STAT SP IPHASW D HRMM SECON CODA AMPLIT PERI AZIMU VELO AIN AR TRES W  DIS CAZ7
 ARAWA    P   1   1036 22.70                                                    
 ARAWA    S   1   1036 47.00                                                    
 RABL     P   1   1036 27.50                                                    
 RABL     S   1   1036 57.30                                                    
 BUIN     P   1   1036 34.20                                                    
 BUIN     S   1   1037  2.10                                                    
 LIHIR    P   1   1036 33.40                                                    

 2015  211 0235 36.4 L  -6.090 155.260 80.0       7 0.2 4.5L sotonPNG2015cxct                   1
 STAT SP IPHASW D HRMM SECON CODA AMPLIT PERI AZIMU VELO AIN AR TRES W  DIS CAZ7
 ARAWA    P   1    235 49.70                                                    
 ARAWA    S   1    235 59.90                                                    
 BUIN     P   1    235 53.60                                                    
 LASU     P   1    236 19.20                                                    
 LASU     S   0    236 50.60                                                    
 RABL     P   1    236 33.80                                                    
 RABL     S   1    237 14.10                                                    

 2015  211 2221 26.3 L  -3.040 152.600  5.0       5 0.0 4.8L sotonPNG2015cypw                   1
 STAT SP IPHASW D HRMM SECON CODA AMPLIT PERI AZIMU VELO AIN AR TRES W  DIS CAZ7
 LIHIR    P   1   2220 17.10                                                    
 RABL     P   1   2224 29.50                                                    
 KIMBE    P   1   2221 26.80                                                    
 KIMBE    S   1   2221 30.90                                                    
 MANU     P   1   2221 40.20                                                    

